{"type":"Topology","arcs":[[[99478,41779],[119,-372],[-325,-8],[80,451],[126,-71]],[[59417,51319],[1054,-1237],[418,-910]],[[60889,49172],[-4,-2195],[313,-1056]],[[61198,45921],[-1056,-809],[-543,116]],[[59599,45228],[-227,1212],[-273,107]],[[59099,46547],[-561,513]],[[58538,47060],[-311,1049],[-78,1164]],[[58149,49273],[393,658],[-79,545]],[[58463,50476],[-14,737]],[[58449,51213],[968,106]],[[47592,67805],[-5,-150]],[[47587,67655],[-1,-873],[-911,30],[9,-1474],[-329,-348],[53,-832],[-1148,-189]],[[45260,63969],[12,243]],[[45272,64212],[630,46],[239,1262],[386,622],[131,726],[177,492],[757,445]],[[15878,80105],[-1277,1055],[-861,2290]],[[13740,83450],[-1372,2872],[-549,-508],[-985,807],[1,3281],[2,2140]],[[10837,92042],[1245,-469],[2516,852],[3763,-1140],[1098,-241],[3195,-115],[1170,742],[-622,588],[351,1055],[1997,-1904],[694,730],[1178,-415],[-30,-1182],[-1300,-608],[-671,-1128],[-1298,-1196],[-409,-1103],[648,-1742],[388,114],[1635,-1142],[761,-89],[242,-1724],[778,233],[-145,910],[717,1379],[-549,1309],[328,604],[-214,1421],[1186,72],[1180,-797],[84,-1212],[857,-110],[450,904],[1393,-2957],[621,-333],[458,-1429],[-1208,-1097],[-1768,-8],[372,-574],[163,-1726],[953,-561],[-1201,-991],[-493,917]],[[31350,77879],[-181,1112],[-402,220],[-630,-1406],[-934,-5],[-542,-790],[-1561,-1126],[-31,2116],[-646,895],[-973,809],[-906,-94],[-977,495],[-1526,0],[-1777,0],[-2500,0],[-1886,0]],[[34555,81441],[-62,-997],[652,-195],[113,-1495],[-884,563],[-837,-16],[702,2123],[316,17]],[[28119,93563],[263,229],[3015,-2053],[1335,-1744],[-877,-1025],[-235,-1413],[-1349,565],[-1909,1382],[1001,290],[456,849],[-1288,1432],[-2127,113],[-1269,459],[-192,849],[2191,873],[985,-806]],[[16239,94772],[1674,-562],[-2105,-1483],[-788,558],[1219,1487]],[[20050,95576],[-1223,-823],[-1525,464],[641,724],[2107,-365]],[[20410,93980],[572,-1200],[-416,-1045],[-2042,-371],[-776,364],[-915,1378],[1170,1012],[2407,-138]],[[23329,98318],[2833,-730],[-1961,-572],[-872,1302]],[[24559,99062],[3411,713],[4837,-443],[-2580,-1477],[-2605,-2087],[-2481,170],[1221,1655],[-1803,1469]],[[13740,83450],[-398,400],[-586,1513],[-1034,217],[-574,598],[-2264,254],[-1726,-1056],[-970,-332],[-1153,1190],[-540,94],[-640,981],[433,949],[-985,1454],[1010,523],[-255,845],[967,1320],[1480,590],[1198,-437],[3134,-511]],[[31350,77879],[-827,-837],[-146,-1273],[-928,-488],[-483,-1551],[-2,-1375],[-785,-974],[-773,-1395],[-43,-410],[399,-2218],[-310,-968],[-705,2729],[-1520,219],[-63,-667],[-616,299],[-851,-114],[-744,-1210],[-45,-888]],[[22908,66758],[-414,306],[-538,1735],[-972,110],[-570,1258],[-1254,-242],[-1053,686],[-643,6]],[[17464,70617],[-386,860],[-514,242],[-933,2596],[-224,2198],[176,1589],[-218,1533],[513,470]],[[74266,80229],[-610,-1276],[-551,190],[-200,-1032],[-693,-358],[82,-1480]],[[72294,76273],[-311,292],[-1369,255],[-903,-595]],[[69711,76225],[-526,-509],[-654,-124],[-504,1475],[-802,-129],[-975,1200],[-715,-340],[11,-2125]],[[65546,75673],[-525,585],[-438,-312]],[[64583,75946],[-447,1296],[597,707],[0,919],[-1094,-261]],[[63639,78607],[-732,1149],[301,1188],[893,713],[1375,-617],[1181,771],[408,1179],[1039,201],[1081,594],[1477,-1059],[594,363],[975,-1909],[930,118],[1105,-1069]],[[69711,76225],[581,-807],[-567,-358]],[[69725,75060],[-467,278],[-417,-2065]],[[68841,73273],[-364,126]],[[68477,73399],[-1788,2341],[-404,764],[-739,-831]],[[89166,50368],[995,-727],[663,-1648],[781,-2116],[-519,152],[-518,1189],[-362,252],[-588,-978],[-443,120]],[[89175,46612],[-9,3756]],[[89175,46612],[-657,1036],[-206,1111],[-767,536],[-882,946],[108,1413],[446,-237],[122,-1146],[1085,615],[742,-518]],[[82744,54251],[46,-1066],[-146,-1781],[-267,-395],[-155,-1250],[-316,-259],[-447,569],[-842,107],[-315,1426],[159,1421]],[[80461,53023],[237,-711],[651,418],[489,-39],[346,1658],[560,-98]],[[84146,52371],[-763,-367],[830,-2836],[-150,-548],[-646,1557],[35,-1496],[-295,85],[36,1087],[-203,399],[352,1941],[237,428],[567,-250]],[[80134,48166],[1147,-302],[236,-809],[-1441,336],[-809,527],[191,551],[676,-303]],[[78991,51242],[483,-1140],[-81,-1608],[-308,-12],[-590,953],[-1107,3483],[-894,1813],[584,159],[877,-1813],[283,-9],[753,-1826]],[[30935,21533],[465,-1303]],[[31400,20230],[-465,16],[0,1287]],[[33993,34453],[-223,-2128]],[[33770,32325],[455,-1724],[-679,-1049],[-862,-62],[53,-1065],[-826,-223],[206,-1043],[-330,-1247],[-560,-729],[539,-538],[-971,-2015],[157,-903]],[[30952,21727],[-929,167],[-392,940],[493,2776],[-166,1905],[286,3226],[362,1420],[-199,1630],[244,1675],[378,899],[-34,1372],[364,1027]],[[31359,38764],[231,521],[997,-240]],[[32587,39045],[511,-941],[852,-738],[-233,-1131],[592,-244],[517,1042]],[[34826,37033],[271,-682],[-1104,-1898]],[[31400,20230],[-1124,-91],[205,1224],[454,170]],[[30952,21727],[-1107,-710],[-664,731],[-194,3236],[265,509],[282,3355],[142,1624],[480,2712],[-15,2050],[163,704],[226,3600],[-78,1755]],[[30452,41293],[217,442]],[[30669,41735],[319,-1051],[-88,-558],[459,-1362]],[[58538,47060],[-557,-107],[-161,-2159],[-1178,776]],[[56642,45570],[-488,-91],[-119,2186],[-642,78],[-540,-526],[-318,1263],[-1113,-129]],[[53422,48351],[-39,179]],[[53383,48530],[226,581]],[[53609,49111],[441,-109],[396,828],[111,1034],[310,574],[258,2448]],[[55125,53886],[282,880],[816,-577],[557,622],[823,72]],[[57603,54883],[293,-546],[358,181],[310,-629]],[[58564,53889],[-348,-2795]],[[58216,51094],[-154,-863]],[[58062,50231],[87,-958]],[[61551,50897],[-165,475],[-3,2100],[243,653]],[[61626,54125],[501,599],[362,25],[785,1730]],[[63274,56479],[319,835],[3,1129]],[[63596,58443],[601,354],[-18,-798],[-443,-2211],[-802,-2276],[-952,-1477],[-431,-1138]],[[59417,51319],[315,1646],[-287,1351]],[[59445,54316],[359,724]],[[59804,55040],[240,-610],[944,-591],[638,286]],[[61551,50897],[-367,-513],[-295,-1212]],[[56824,56609],[-308,418],[-165,1261]],[[56351,58288],[-230,1045],[274,1571],[240,-41],[-14,2288]],[[56621,63151],[323,244],[0,1150]],[[56944,64545],[1117,0],[2179,0]],[[60240,64545],[171,-1951],[258,-355]],[[60669,62239],[-433,-600],[-117,-1461]],[[60119,60178],[-157,-1062],[-447,-1123],[-78,-1121]],[[59437,56872],[-213,2014],[-515,-1366],[-377,277],[-286,-514],[-692,89],[-391,416],[-139,-1179]],[[56351,58288],[-518,-960],[-530,-231],[-313,-683],[-746,-270]],[[54244,56144],[-368,1226],[269,773],[-119,1135]],[[54026,59278],[-265,869],[474,1302],[182,2167],[-292,1427]],[[54125,65043],[280,315],[1108,-1104],[1108,-1103]],[[30080,63228],[1,-962]],[[30081,62266],[-274,231],[273,731]],[[30080,63228],[251,96],[691,-731],[-941,-327]],[[63639,78607],[-672,-1032],[528,-1614]],[[63495,75961],[-605,30]],[[62890,75991],[-260,370],[-1532,537]],[[61098,76898],[-671,705],[190,1409]],[[60617,79012],[421,459],[92,981],[-1309,562],[-446,1013],[-546,-134]],[[58829,81893],[-253,1988],[-750,356]],[[57826,84237],[-247,752]],[[57579,84989],[193,1153]],[[57772,86142],[25,593]],[[57797,86735],[852,1068],[-443,1494],[-264,2372]],[[57942,91669],[697,284]],[[58639,91953],[1503,-285],[1281,-1309],[-1753,-514],[36,-856],[2502,953],[2713,1607],[1000,-225],[1718,623],[1788,2013],[2698,-415],[238,765],[1754,166],[95,680],[3266,767],[1508,721],[1868,-569],[803,-1796],[3613,-17],[412,-913],[1500,-342],[1670,58],[166,785],[2509,-374],[963,-783],[1122,109],[1093,-919],[4106,254],[1188,-527],[0,-2296],[-175,-1150],[-1581,-767],[-828,-759],[-1988,-269],[-395,-2889],[-1480,-2216],[-377,2519],[382,1412],[432,129],[488,1434],[-944,513],[-696,-966],[-820,-563],[-1605,320],[-914,-171],[-1964,-2484],[574,-433],[753,122],[401,-634],[-357,-2675],[-512,-1233],[-930,-1677],[-720,-65],[-416,-614],[0,0],[0,0]],[[86327,76198],[-39,101]],[[86288,76299],[107,1483],[576,101],[535,1922],[-1122,-397],[-441,951],[-483,185],[-476,1747],[-1373,264],[-73,-741],[-795,-1414],[-333,217]],[[82410,80617],[-643,208],[-1028,-645],[-1048,660],[-893,-106],[-447,674],[-890,454],[-445,-1338],[-1396,620],[-1245,-867]],[[74375,80277],[-109,-48]],[[56314,83176],[-853,56]],[[55461,83232],[446,441]],[[55907,83673],[407,-497]],[[1409,90597],[853,-168],[-565,-1516],[-1241,638],[-456,-237],[0,2296],[1409,-1013]],[[28280,66395],[84,-23],[97,-478],[-241,136],[60,365]],[[33000,21986],[333,346],[542,-375],[-736,-231],[-139,260]],[[57942,91669],[-1072,-240],[-1136,264]],[[55734,91693],[-1077,-630],[-1343,-2815],[194,-1058],[-445,-1405]],[[53063,85785],[-1490,-154],[-187,1950],[1538,1449],[1176,1916],[1228,1156],[2495,789],[816,-938]],[[37010,99485],[5462,514],[4136,-1284],[-2082,-1464],[92,-2568],[-1130,-1277],[304,-1124],[-1500,-956],[-1407,-423],[-983,-1013],[-961,-300],[-991,-3089],[-1357,438],[-936,1596],[-649,2053],[-10,2511],[-1272,2288],[-2755,314],[-1293,1366],[2919,1924],[4413,494]],[[69148,23844],[442,-253],[-68,-372],[-427,-37],[53,662]],[[84746,46454],[-33,288],[465,285],[90,-156],[-522,-417]],[[54540,35398],[589,-270],[397,337],[0,2128]],[[55526,37593],[475,-1129],[474,841],[654,-126],[404,1102],[642,855]],[[58175,39136],[489,-93]],[[58664,39043],[179,-2070]],[[58843,36973],[-220,65],[-100,-584],[385,6]],[[58908,36460],[211,-5]],[[59119,36455],[-102,-898],[-1179,-2577],[-677,-675],[-891,46],[-822,-550],[-381,548],[-6,1271],[-521,1778]],[[58049,35180],[-550,-531],[209,-443],[305,331],[36,643]],[[22908,66758],[-95,-1957],[548,-2084],[409,-394],[1015,657],[137,989],[897,313],[-347,-1754]],[[25472,62528],[-234,-398]],[[25238,62130],[-516,5],[-341,-1890]],[[24381,60245],[-684,958],[-519,-315],[-1186,874],[-1157,1237],[-288,1992],[-906,2115],[-816,1447],[-255,1278],[-424,-582],[849,-2016],[-190,-376],[-601,652],[84,820],[-377,571],[-447,1717]],[[33993,34453],[180,62],[886,-1117],[115,-992]],[[35174,32406],[-434,-682],[-970,601]],[[34826,37033],[-274,1777],[-646,326],[-64,1103]],[[33842,40239],[186,1154],[-206,1080],[-533,24],[-96,1431],[-1361,1273],[18,1040],[-815,-722],[-349,36]],[[30686,45555],[-738,518],[-500,1458],[304,1296],[833,563]],[[30585,49390],[125,1580],[-160,790],[56,1095],[817,-266]],[[31423,52589],[153,-305],[591,443],[-47,1328],[944,426],[65,383]],[[33129,54864],[332,-716],[-121,-693],[262,-829],[692,335]],[[34294,52961],[560,238]],[[34854,53199],[440,-108],[356,1171]],[[35650,54262],[475,-1792],[369,-739],[1032,-758],[135,-338],[818,-446],[415,22],[766,-1122],[552,-372],[140,-1082],[-110,-953],[-533,-1178],[-530,-1586],[20,-1080],[-244,-2266],[-619,-1943],[-739,-220],[-506,-425],[-562,-1030],[-109,-1612],[-1246,-2936]],[[30669,41735],[257,2893],[-240,927]],[[33842,40239],[-263,472],[-742,-159],[-250,-1507]],[[30452,41293],[-303,567],[-1263,1564],[-305,1399],[-737,2898],[-414,609],[-44,807],[307,768]],[[27693,49905],[462,-659],[223,890],[637,831],[48,812]],[[29063,51779],[639,-1243],[627,30],[256,-1176]],[[29063,51779],[-570,316],[-398,568]],[[28095,52663],[480,1422],[-209,1945]],[[28366,56030],[147,834]],[[28513,56864],[466,445],[54,678],[1152,666]],[[30185,58653],[-437,-764],[263,-1993],[518,-18],[196,-496],[569,-2],[-134,-918],[263,-1873]],[[28366,56030],[-344,1021],[-378,-522],[-690,78]],[[26954,56607],[116,773]],[[27070,57380],[308,-450],[518,476],[617,-542]],[[26954,56607],[-787,1101],[24,549]],[[26191,58257],[571,-86]],[[26762,58171],[308,-791]],[[26191,58257],[-446,1093]],[[25745,59350],[665,1041],[493,118]],[[26903,60509],[-141,-2338]],[[25745,59350],[-132,230]],[[25613,59580],[-434,599]],[[25179,60179],[314,752]],[[25493,60931],[1071,62],[339,-484]],[[25613,59580],[-640,202]],[[24973,59782],[206,397]],[[25238,62130],[59,-1107]],[[25297,61023],[196,-92]],[[24973,59782],[-592,463]],[[25472,62528],[-175,-1505]],[[30185,58653],[681,-191],[191,-513],[1518,-77],[825,-1183]],[[33400,56689],[-459,-1388],[188,-437]],[[33400,56689],[725,-1380]],[[34125,55309],[-249,-1102],[418,-1246]],[[34125,55309],[886,-125]],[[35011,55184],[-157,-1985]],[[35011,55184],[639,-922]],[[51718,80373],[356,-1063]],[[52074,79310],[-174,-939]],[[51900,78371],[165,-1324]],[[52065,77047],[-800,-169],[-436,-534]],[[50829,76344],[-322,-75],[-1036,622]],[[49471,76891],[197,1494],[-492,896],[549,1025],[973,1038]],[[50698,81344],[878,-933]],[[51576,80411],[142,-38]],[[27693,49905],[-175,1352],[234,1053],[343,353]],[[31588,62537],[121,-311],[-372,-17],[24,331],[227,-3]],[[28453,62523],[334,-190],[-233,-265],[-101,455]],[[27147,65230],[1090,-389],[506,-753],[-342,-779],[-268,1005],[-861,342],[-125,574]],[[58175,39136],[-392,348],[-766,2161]],[[57017,41645],[495,-116],[687,1322],[210,79]],[[58409,42930],[715,-695],[-21,-1730],[-439,-1462]],[[55526,37593],[0,1682],[274,20],[8,2053],[1159,340]],[[56967,41688],[50,-43]],[[54540,35398],[-315,856],[-265,2870],[-701,2772]],[[53259,41896],[1814,-5],[865,-358],[510,235]],[[56448,41768],[519,-80]],[[45357,59702],[-131,763],[200,700]],[[45426,61165],[524,267],[669,-1142]],[[46619,60290],[182,-1252]],[[46801,59038],[-607,82]],[[46194,59120],[-827,-116]],[[45367,59004],[-46,442]],[[45321,59446],[253,-12],[85,284],[-302,-16]],[[46619,60290],[140,445],[1702,65],[-120,2962],[-134,2487],[425,11]],[[48632,66260],[937,-1258],[1616,-2096]],[[51185,62906],[1,-1327],[-176,-740],[-906,-369]],[[50104,60470],[-660,-213],[-895,-1640],[-51,-774]],[[48498,57843],[-729,-94]],[[47769,57749],[-305,1211],[-663,78]],[[47587,67655],[1045,-1395]],[[45426,61165],[52,2281],[-218,523]],[[50747,55474],[-229,-67]],[[50518,55407],[-56,1721],[-213,1077]],[[50249,58205],[349,543]],[[50598,58748],[405,-161]],[[51003,58587],[26,-921],[-273,-897],[-9,-1295]],[[54026,59278],[-87,-217]],[[53939,59061],[-1130,457],[-305,-259],[-1291,530],[-210,-1202]],[[50598,58748],[-314,525],[-180,1197]],[[51185,62906],[392,257],[1756,2230]],[[53333,65393],[792,-350]],[[53939,59061],[-677,-3171],[-698,-309],[-203,-964]],[[52361,54617],[-723,-294],[-437,1158],[-454,-7]],[[54244,56144],[-223,-1550],[426,-1420]],[[54447,53174],[-815,-1]],[[53632,53173],[-500,-3]],[[53132,53170],[-452,13]],[[52680,53183],[-319,1434]],[[50518,55407],[-224,-123]],[[50294,55284],[-158,854],[-130,2079]],[[50006,58217],[243,-12]],[[50294,55284],[-840,-703],[-248,164]],[[49206,54745],[-108,724],[190,1135],[-74,820]],[[49214,57424],[-31,761],[823,32]],[[48498,57843],[716,-419]],[[49206,54745],[-827,0],[-522,-363]],[[47857,54382],[40,774],[-242,1140]],[[47655,56296],[114,1453]],[[47655,56296],[-497,415]],[[47158,56711],[-247,945],[-591,-658]],[[46320,56998],[-523,1231]],[[45797,58229],[397,891]],[[45797,58229],[-430,775]],[[47857,54382],[-359,270],[-676,1126]],[[46822,55778],[336,933]],[[46822,55778],[-419,583],[-83,637]],[[55125,53886],[-366,129],[-312,-841]],[[56824,56609],[779,-1726]],[[53609,49111],[-300,-148]],[[53309,48963],[-228,611]],[[53081,49574],[389,914],[416,-45],[121,655],[-375,2075]],[[53081,49574],[-638,1652],[193,1223]],[[52636,52449],[498,27],[-2,694]],[[52636,52449],[44,734]],[[59099,46547],[202,-746],[-75,-1986]],[[59226,43815],[-843,-475],[26,-410]],[[56448,41768],[-369,832],[13,1833],[579,-7],[-29,1144]],[[59599,45228],[-27,-1783],[-346,370]],[[61198,45921],[128,-2521],[-368,-1169],[-567,-499],[-729,-1267],[216,-1329],[-29,-1171],[-801,-925],[71,-585]],[[58908,36460],[-65,513]],[[53259,41896],[12,869],[267,1530],[249,634],[-111,2003],[-254,1419]],[[53383,48530],[-74,433]],[[58062,50231],[401,245]],[[59922,70717],[-49,-182]],[[59873,70535],[-100,80],[-72,-679],[131,78]],[[59832,70014],[-132,-1146]],[[59700,68868],[-27,150]],[[59673,69018],[-155,840]],[[59518,69858],[239,1079]],[[59757,70937],[193,108]],[[59950,71045],[-28,-328]],[[59757,70937],[242,896]],[[59999,71833],[-49,-788]],[[63761,44680],[260,-1588],[-272,-1083],[-264,-1955],[-403,-2561],[-469,-380],[-380,353],[-219,1689],[312,1144],[-115,1534],[135,688],[518,252],[897,1907]],[[59873,70535],[-41,-521]],[[45321,59446],[36,256]],[[52633,69333],[-118,1035],[-401,715],[225,2076]],[[52339,73159],[302,233],[397,-952],[-219,-788],[372,-688]],[[53191,70964],[-558,-1631]],[[47592,67805],[-2,683],[953,668],[443,943],[650,361],[-239,1674]],[[49397,72134],[1010,829],[1332,291],[600,-95]],[[52633,69333],[65,-2187],[164,-1229],[471,-524]],[[59922,70717],[309,-228],[544,614]],[[60775,71103],[112,-702]],[[60887,70401],[-332,-952],[-536,-756],[-310,92]],[[59709,68785],[-9,83]],[[64327,65839],[675,-71],[573,1115],[52,-197],[38,-455]],[[65665,66231],[-330,-1277]],[[65335,64954],[-891,168],[-117,717]],[[64113,66133],[57,722],[160,-119],[-56,-676]],[[64274,66060],[-161,73]],[[63326,69142],[122,-821]],[[63448,68321],[-513,316]],[[62935,68637],[391,505]],[[60775,71103],[615,600],[79,1117],[294,502]],[[61763,73322],[673,-34]],[[62436,73288],[362,-860],[-183,-986],[533,-863],[342,-1465]],[[63490,69114],[-164,28]],[[62935,68637],[-516,46],[-784,1159],[-748,559]],[[65665,66231],[648,-783],[299,-724],[-560,-1869],[-699,-1060],[-601,-332]],[[64752,61463],[-308,1353]],[[64444,62816],[833,577],[58,1561]],[[96330,42837],[-45,601],[133,-178],[45,-464],[-133,41]],[[78495,58890],[112,1175],[620,27]],[[79227,60092],[601,-40]],[[79828,60052],[30,-1075],[-877,-1067]],[[78981,57910],[-486,980]],[[78495,58890],[-446,707],[-267,-638],[-240,-1351],[363,-1460],[467,-696]],[[78372,55452],[-571,140]],[[77801,55592],[-440,1106],[14,893]],[[77375,57591],[287,1130],[-321,1572],[131,897],[-290,801],[110,1234],[517,409]],[[77809,63634],[555,-1331],[512,76],[453,-1539],[-102,-748]],[[77809,63634],[296,587]],[[78105,64221],[275,592]],[[78380,64813],[287,-978],[342,-5],[183,-1205],[686,-1997],[-50,-576]],[[77375,57591],[59,869],[-445,3163],[-498,-700],[-328,186],[38,1254],[-544,1416]],[[75657,63779],[85,790]],[[75742,64569],[398,1043],[283,1569],[612,973]],[[77035,68154],[376,-434],[-6,-1986],[161,-1120],[539,-393]],[[78380,64813],[877,512],[756,-1038]],[[80013,64287],[-663,-1437],[472,-1360],[421,-819],[90,-2081],[-1123,-1767],[-229,1087]],[[86327,76198],[-299,-771],[-603,-648],[227,-660]],[[85652,74119],[-604,-497]],[[85048,73622],[-407,207],[-124,1049]],[[84517,74878],[724,1088],[1047,333]],[[85652,74119],[308,-1054],[-102,-980],[-724,-399],[-86,1936]],[[82410,80617],[-332,-1010],[538,-843],[-2271,-2393],[-1189,-532],[-870,529],[-1523,121],[-290,874],[-1211,602],[7,923],[-894,1389]],[[75742,64569],[-211,1204],[-554,657],[-510,-443],[263,-1410]],[[74730,64577],[-571,-322],[-132,-775],[-1715,-2451],[-130,-3193],[-644,-1379],[-263,538],[-850,4087],[-251,3092],[-600,-276],[-637,1622]],[[68937,65520],[797,383],[-243,1231],[447,819],[734,1767],[-50,2173],[731,-55],[268,484]],[[71621,72322],[298,-676],[-48,-1617],[659,-768]],[[72530,69261],[-284,-800],[1434,-1192],[780,-180],[17,843]],[[74477,67932],[193,-333]],[[74670,67599],[258,-334],[543,607]],[[75471,67872],[797,867],[431,101],[336,-686]],[[75657,63779],[-264,1207],[-663,-409]],[[74670,67599],[334,575],[467,-302]],[[72530,69261],[338,-39],[971,-1102],[638,-188]],[[68937,65520],[-501,999],[-1354,-200]],[[67082,66319],[505,968],[-163,866],[-515,904]],[[66909,69057],[465,-294],[1055,328],[164,817],[553,181],[543,1366],[268,1452],[920,359]],[[70877,73266],[287,-711],[457,-233]],[[68841,73273],[1031,439],[955,-280]],[[70827,73432],[50,-166]],[[66909,69057],[-96,2217],[189,1138]],[[67002,72412],[284,-219],[1191,1206]],[[69725,75060],[740,-469]],[[70465,74591],[362,-1159]],[[72294,76273],[-576,-671],[-1253,-1011]],[[67002,72412],[-549,1016],[-1034,317],[-441,-441]],[[64978,73304],[-12,1011],[-329,623],[-54,1008]],[[62436,73288],[6,1465]],[[62442,74753],[375,-560],[101,17]],[[62918,74210],[660,-259]],[[63578,73951],[88,-425],[851,-509],[461,287]],[[67082,66319],[-1139,382],[-251,808],[-494,-381],[-887,798],[-391,1315],[-430,-127]],[[59999,71833],[42,678]],[[60041,72511],[255,462],[1467,349]],[[62442,74753],[-336,795]],[[62106,75548],[386,90]],[[62492,75638],[426,-1428]],[[55734,91693],[804,-675],[101,-1112]],[[56639,89906],[-1682,-1877],[-202,-811],[463,-726],[-544,-785],[-263,-1507],[-816,-428],[-532,2013]],[[58829,81893],[-703,-423],[-1591,121]],[[56535,81591],[-12,1345]],[[56523,82936],[570,214],[266,768]],[[57359,83918],[467,319]],[[60617,79012],[-892,-787],[-438,135],[-746,353],[-318,-744]],[[58223,77969],[-381,113]],[[57842,78082],[424,496],[-177,864],[-695,214]],[[57394,79656],[-1086,-195]],[[56308,79461],[-174,311]],[[56134,79772],[132,383]],[[56266,80155],[269,1436]],[[56314,83176],[209,-240]],[[56266,80155],[-1030,236]],[[55236,80391],[-1065,928]],[[54171,81319],[-249,1528]],[[53922,82847],[973,631],[566,-246]],[[54716,79600],[-216,-732]],[[54500,78868],[-665,-198]],[[53835,78670],[-935,221]],[[52900,78891],[-235,364]],[[52665,79255],[953,65],[158,715]],[[53776,80035],[935,-162]],[[54711,79873],[5,-273]],[[56308,79461],[-692,-1011]],[[55616,78450],[-386,-126]],[[55230,78324],[-629,343]],[[54601,78667],[-101,201]],[[54716,79600],[244,-210],[1174,382]],[[57842,78082],[-448,1574]],[[58223,77969],[-291,-914]],[[57932,77055],[-830,-11],[-809,315]],[[56293,77359],[-677,1091]],[[55907,83673],[-59,484]],[[55848,84157],[1057,197],[454,-436]],[[55848,84157],[146,796],[759,220]],[[56753,85173],[826,-184]],[[56753,85173],[-270,803],[1289,166]],[[51718,80373],[-40,382]],[[51678,80755],[32,390]],[[51710,81145],[208,1543]],[[51918,82688],[450,854]],[[52368,83542],[388,11]],[[52756,83553],[1166,-706]],[[54171,81319],[-772,-484],[377,-800]],[[52665,79255],[-591,55]],[[57932,77055],[-156,-979]],[[57776,76076],[-522,-104]],[[57254,75972],[-879,-282]],[[56375,75690],[-159,566]],[[56216,76256],[77,1103]],[[57254,75972],[-17,-578]],[[57237,75394],[-890,-672],[330,-1155],[-658,-467],[-422,1603]],[[55597,74703],[241,701]],[[55838,75404],[537,286]],[[60041,72511],[-399,561],[-612,-396],[-1352,317],[-409,1617],[853,1012],[529,-76],[1117,548],[884,-629],[890,339]],[[61542,75804],[564,-256]],[[57776,76076],[-539,-682]],[[55597,74703],[-217,1298]],[[55380,76001],[195,410]],[[55575,76411],[144,-423]],[[55719,75988],[119,-584]],[[55230,78324],[49,-604]],[[55279,77720],[-905,-24],[781,-1250]],[[55155,76446],[-31,-98]],[[55124,76348],[-676,592],[-639,1149]],[[53809,78089],[448,-28],[344,606]],[[52900,78891],[-1000,-520]],[[51576,80411],[102,344]],[[50698,81344],[222,113]],[[50920,81457],[790,-312]],[[50920,81457],[387,1006],[611,225]],[[47490,76002],[657,2],[-218,-2758]],[[47929,73246],[-401,-132],[-175,1077],[137,1811]],[[50829,76344],[-604,-840],[-415,-1944],[-407,-558],[-897,-419],[-577,663]],[[47490,76002],[293,1077],[1688,-188]],[[48278,82911],[-164,-927],[-493,-340],[-313,1275],[588,720],[382,-728]],[[96049,39718],[-85,-345],[-363,712],[81,187],[367,-554]],[[94344,47245],[77,-299],[-370,452],[-63,250],[356,-403]],[[99134,28777],[-243,-705],[-608,1026],[243,1226],[1061,-181],[-453,-1366]],[[97129,26766],[675,1498],[597,-469],[-776,-1425],[-589,-1382],[-738,242],[103,639],[728,897]],[[91024,28349],[186,-723],[-642,-857],[-369,1376],[825,204]],[[85040,33301],[-691,-965],[-1046,-50],[-519,-627],[-833,500],[215,1148],[-211,1581],[-241,774],[-217,2152],[349,1472],[573,650],[1151,587],[405,1400],[937,1743],[383,238],[360,-606],[291,258],[336,1086],[815,432],[944,-326],[-423,-1362],[1065,-1530],[448,1],[230,1339],[-4,1520],[230,1003],[390,-2236],[404,-252],[281,-2290],[684,-826],[230,-1124],[883,-1686],[198,-1638],[-188,-2035],[-328,-807],[-454,-1947],[-1044,-1507],[-1578,585],[-295,1084],[-404,304],[-1069,1726],[-818,646],[-1439,-415]],[[72718,56202],[-400,-896],[-181,1287],[318,615],[263,-1006]],[[84517,74878],[-802,-103],[-1068,-584],[603,-911],[-153,-1295],[299,-316],[467,-1538],[51,-1072],[-955,-3046],[-768,-1016],[-1124,-711],[-1054,1]],[[83826,65925],[-286,-1397],[-178,914],[464,483]],[[53835,78670],[36,-529]],[[53871,78141],[-447,-121],[72,-743],[917,-1470],[156,-1006],[-1207,1100],[-893,1534],[-404,-388]],[[52368,83542],[-121,909],[600,201],[-91,-1099]],[[49140,82644],[-692,1098],[-157,850],[317,1063],[847,-545],[-35,-1022],[710,-1718],[22,-1247],[-1157,-310],[-459,1016],[604,815]],[[45969,90165],[250,-766],[-1402,-939],[-1140,267],[607,1021],[1685,417]],[[63495,75961],[287,-712],[-204,-1298]],[[62492,75638],[398,353]],[[61542,75804],[-444,1094]],[[85104,56716],[44,-706],[-643,-592],[-257,724],[53,735],[760,341],[43,-502]],[[83982,62370],[-188,-1322],[-442,-554],[179,2037],[451,-161]],[[80461,53023],[926,632],[336,820]],[[81723,54475],[317,-121],[29,652]],[[82069,55006],[354,852],[682,-875],[-361,-732]],[[78372,55452],[344,-787],[39,-2091],[-592,884],[-362,2134]],[[81723,54475],[346,531]],[[53809,78089],[62,52]],[[57797,86735],[-1445,-379],[-430,504],[-73,1087],[1205,1443],[-415,516]],[[54711,79873],[525,518]],[[60669,62239],[238,-1196],[1059,-1857]],[[61966,59186],[-202,-91]],[[61764,59095],[-404,908],[-500,359],[-741,-184]],[[89411,74447],[-256,-581],[-52,-1343],[-500,-677],[-1082,-41],[-812,-399],[-229,-1414],[-534,1063],[891,1232],[850,54],[1042,1550],[127,1352],[555,-796]],[[90169,77201],[-397,-1132],[-501,803],[164,1246],[734,-917]],[[64752,61463],[-261,-607],[-970,-919],[-1443,-788],[-195,2139]],[[61883,61288],[167,710],[1005,-363],[588,961],[801,220]],[[63448,68321],[483,-1073],[182,-1115]],[[64274,66060],[53,-221]],[[61883,61288],[-512,1809],[-500,1040],[-179,1381],[-934,2522],[-49,745]],[[29468,10794],[1164,1164],[261,-1683],[-1425,519]],[[99999,3047],[0,-3047],[-99999,0],[0,3047],[3605,82],[5136,-598],[-1203,2055],[1567,790],[-1142,1886],[1947,1073],[2530,711],[5278,34],[4325,-610],[1197,972],[2198,350],[3389,-554],[2024,554],[468,790],[-343,881],[207,1603],[620,-146],[1110,-2022],[-125,-1931],[-2400,-1264],[-2034,-1006],[712,-1084],[3363,-858],[9640,813],[-2007,1152],[1915,960],[3661,1253],[71,780],[1431,1084],[799,-249],[2302,226],[2404,745],[2704,68],[2176,-327],[1573,621],[2018,158],[3498,1762],[1040,45],[663,-757],[2818,-373],[-299,-1366],[892,-1028],[789,1276],[1050,238],[1426,1298],[1305,192],[3401,-214],[865,971],[930,-791],[2062,610],[2018,-756],[403,361],[1801,-113],[1964,418],[441,-531],[2230,23],[321,-565],[2122,-384],[2334,-1253],[2366,-554],[-1420,-1547],[-723,-1547],[-1028,-2236],[5614,-2171]],[[59092,72118],[259,134],[86,-181]],[[59437,72071],[-345,47]],[[59437,72071],[-277,-281],[-68,328]],[[45272,64212],[716,2785],[1355,2120],[-70,717],[322,1189],[484,502],[273,950],[1045,-341]],[[56944,64545],[0,2123],[46,3392]],[[56990,70060],[1041,-403],[573,395],[914,-194]],[[59673,69018],[-410,-1188],[977,-3285]],[[53191,70964],[1043,-503],[130,-512],[937,-640],[491,1407],[567,-40],[631,-616]],[[59804,55040],[-556,1642],[189,190]],[[61764,59095],[118,-931]],[[61882,58164],[250,-1005],[1142,-680]],[[61966,59186],[18,-714]],[[61984,58472],[-102,-308]],[[61984,58472],[270,-585],[1342,556]],[[58449,51213],[-233,-119]],[[58564,53889],[881,427]],[[55279,77720],[59,-771]],[[55338,76949],[-183,-503]],[[55719,75988],[274,225]],[[55993,76213],[223,43]],[[55993,76213],[-366,327]],[[55627,76540],[-289,409]],[[55380,76001],[-256,347]],[[55627,76540],[-52,-129]],[[32866,58068],[218,55],[-11,-430],[-232,-63],[25,438]]],"transform":{"scale":[0.0036000360003600037,0.001735213952139521],"translate":[-180,-90]},"objects":{"ne_110m_admin_0_countries":{"type":"GeometryCollection","geometries":[{"arcs":[[0]],"type":"Polygon","properties":{"id":"FJI","name":"Fiji"}},{"arcs":[[1,2,3,4,5,6,7,8,9]],"type":"Polygon","properties":{"id":"TZA","name":"Tanzania"}},{"arcs":[[10,11,12,13]],"type":"Polygon","properties":{"id":"ESH","name":"Western Sahara"}},{"arcs":[[[14,15,16,17]],[[18]],[[19]],[[20]],[[21]],[[22]],[[23]],[[24]]],"type":"MultiPolygon","properties":{"id":"CAN","name":"Canada"}},{"arcs":[[[-16,25]],[[-18,26,27,28]]],"type":"MultiPolygon","properties":{"id":"USA","name":"United States of America"}},{"arcs":[[29,30,31,32,33,34]],"type":"Polygon","properties":{"id":"KAZ","name":"Kazakhstan"}},{"arcs":[[-32,35,36,37,38]],"type":"Polygon","properties":{"id":"UZB","name":"Uzbekistan"}},{"arcs":[[39,40]],"type":"Polygon","properties":{"id":"PNG","name":"Papua New Guinea"}},{"arcs":[[[-41,41]],[[42,43]],[[44]],[[45]],[[46]]],"type":"MultiPolygon","properties":{"id":"IDN","name":"Indonesia"}},{"arcs":[[[47,48]],[[49,50,51,52,53,54]]],"type":"MultiPolygon","properties":{"id":"ARG","name":"Argentina"}},{"arcs":[[[-49,55]],[[-52,56,57,58]]],"type":"MultiPolygon","properties":{"id":"CHL","name":"Chile"}},{"arcs":[[-7,59,60,61,62,63,64,65,66,67,68]],"type":"Polygon","properties":{"id":"COD","name":"Democratic Republic of the Congo"}},{"arcs":[[69,70,71,72]],"type":"Polygon","properties":{"id":"SOM","name":"Somalia"}},{"arcs":[[-2,73,74,75,-70,76]],"type":"Polygon","properties":{"id":"KEN","name":"Kenya"}},{"arcs":[[77,78,79,80,81,82,83,84]],"type":"Polygon","properties":{"id":"SDN","name":"Sudan"}},{"arcs":[[-79,85,86,87,88]],"type":"Polygon","properties":{"id":"TCD","name":"Chad"}},{"arcs":[[89,90]],"type":"Polygon","properties":{"id":"HTI","name":"Haiti"}},{"arcs":[[-90,91]],"type":"Polygon","properties":{"id":"DOM","name":"Dominican Republic"}},{"arcs":[[[-35,92,93,94,95,96,97,98,99,100,101,102,103,104,105,106,107]],[[108,109,110]],[[111]]],"type":"MultiPolygon","properties":{"id":"RUS","name":"Russia"}},{"arcs":[[112]],"type":"Polygon","properties":{"id":"BHS","name":"The Bahamas"}},{"arcs":[[113]],"type":"Polygon","properties":{"id":"FLK","name":"Falkland Islands"}},{"arcs":[[-103,114,115,116]],"type":"Polygon","properties":{"id":"NOR","name":"Norway"}},{"arcs":[[117]],"type":"Polygon","properties":{"id":"GRL","name":"Greenland"}},{"arcs":[[118]],"type":"Polygon","properties":{"id":"ATF","name":"French Southern and Antarctic Lands"}},{"arcs":[[119]],"type":"Polygon","properties":{"id":"TLS","name":"East Timor"}},{"arcs":[[120,121,122,123,124,125,126],[127]],"type":"Polygon","properties":{"id":"ZAF","name":"South Africa"}},{"arcs":[[-128]],"type":"Polygon","properties":{"id":"LSO","name":"Lesotho"}},{"arcs":[[-28,128,129,130,131]],"type":"Polygon","properties":{"id":"MEX","name":"Mexico"}},{"arcs":[[-50,132,133]],"type":"Polygon","properties":{"id":"URY","name":"Uruguay"}},{"arcs":[[-55,134,135,136,137,138,139,140,141,142,-133]],"type":"Polygon","properties":{"id":"BRA","name":"Brazil"}},{"arcs":[[-53,-59,143,-136,144]],"type":"Polygon","properties":{"id":"BOL","name":"Bolivia"}},{"arcs":[[-58,145,146,147,-137,-144]],"type":"Polygon","properties":{"id":"PER","name":"Peru"}},{"arcs":[[-138,-148,148,149,150,151,152]],"type":"Polygon","properties":{"id":"COL","name":"Colombia"}},{"arcs":[[-151,153,154,155]],"type":"Polygon","properties":{"id":"PAN","name":"Panama"}},{"arcs":[[-155,156,157,158]],"type":"Polygon","properties":{"id":"CRI","name":"Costa Rica"}},{"arcs":[[-158,159,160,161]],"type":"Polygon","properties":{"id":"NIC","name":"Nicaragua"}},{"arcs":[[-161,162,163,164,165]],"type":"Polygon","properties":{"id":"HND","name":"Honduras"}},{"arcs":[[-164,166,167]],"type":"Polygon","properties":{"id":"SLV","name":"El Salvador"}},{"arcs":[[-131,168,169,-165,-168,170]],"type":"Polygon","properties":{"id":"GTM","name":"Guatemala"}},{"arcs":[[-130,171,-169]],"type":"Polygon","properties":{"id":"BLZ","name":"Belize"}},{"arcs":[[-139,-153,172,173]],"type":"Polygon","properties":{"id":"VEN","name":"Venezuela"}},{"arcs":[[-140,-174,174,175]],"type":"Polygon","properties":{"id":"GUY","name":"Guyana"}},{"arcs":[[-141,-176,176,177]],"type":"Polygon","properties":{"id":"SUR","name":"Suriname"}},{"arcs":[[[-142,-178,178]],[[179,180,181,182,183,184,185,186]]],"type":"MultiPolygon","properties":{"id":"FRA","name":"France"}},{"arcs":[[-147,187,-149]],"type":"Polygon","properties":{"id":"ECU","name":"Ecuador"}},{"arcs":[[188]],"type":"Polygon","properties":{"id":"PRI","name":"Puerto Rico"}},{"arcs":[[189]],"type":"Polygon","properties":{"id":"JAM","name":"Jamaica"}},{"arcs":[[190]],"type":"Polygon","properties":{"id":"CUB","name":"Cuba"}},{"arcs":[[-123,191,192,193]],"type":"Polygon","properties":{"id":"ZWE","name":"Zimbabwe"}},{"arcs":[[-122,194,195,-192]],"type":"Polygon","properties":{"id":"BWA","name":"Botswana"}},{"arcs":[[-121,196,197,198,-195]],"type":"Polygon","properties":{"id":"NAM","name":"Namibia"}},{"arcs":[[199,200,201,202,203,204,205]],"type":"Polygon","properties":{"id":"SEN","name":"Senegal"}},{"arcs":[[-202,206,207,208,209,210,211]],"type":"Polygon","properties":{"id":"MLI","name":"Mali"}},{"arcs":[[-12,212,-207,-201,213]],"type":"Polygon","properties":{"id":"MRT","name":"Mauritania"}},{"arcs":[[214,215,216,217,218]],"type":"Polygon","properties":{"id":"BEN","name":"Benin"}},{"arcs":[[-88,219,220,-218,221,-209,222,223]],"type":"Polygon","properties":{"id":"NER","name":"Niger"}},{"arcs":[[-219,-221,224,225]],"type":"Polygon","properties":{"id":"NGA","name":"Nigeria"}},{"arcs":[[-87,226,227,228,229,230,-225,-220]],"type":"Polygon","properties":{"id":"CMR","name":"Cameroon"}},{"arcs":[[-216,231,232,233]],"type":"Polygon","properties":{"id":"TGO","name":"Togo"}},{"arcs":[[-233,234,235,236]],"type":"Polygon","properties":{"id":"GHA","name":"Ghana"}},{"arcs":[[-211,237,-236,238,239,240]],"type":"Polygon","properties":{"id":"CIV","name":"Ivory Coast"}},{"arcs":[[-203,-212,-241,241,242,243,244]],"type":"Polygon","properties":{"id":"GIN","name":"Guinea"}},{"arcs":[[-204,-245,245]],"type":"Polygon","properties":{"id":"GNB","name":"Guinea-Bissau"}},{"arcs":[[-240,246,247,-242]],"type":"Polygon","properties":{"id":"LBR","name":"Liberia"}},{"arcs":[[-243,-248,248]],"type":"Polygon","properties":{"id":"SLE","name":"Sierra Leone"}},{"arcs":[[-210,-222,-217,-234,-237,-238]],"type":"Polygon","properties":{"id":"BFA","name":"Burkina Faso"}},{"arcs":[[-65,249,-227,-86,-78,250]],"type":"Polygon","properties":{"id":"CAF","name":"Central African Republic"}},{"arcs":[[-64,251,252,253,-228,-250]],"type":"Polygon","properties":{"id":"COG","name":"Republic of the Congo"}},{"arcs":[[-229,-254,254,255]],"type":"Polygon","properties":{"id":"GAB","name":"Gabon"}},{"arcs":[[-230,-256,256]],"type":"Polygon","properties":{"id":"GNQ","name":"Equatorial Guinea"}},{"arcs":[[-6,257,258,-193,-196,-199,259,-60]],"type":"Polygon","properties":{"id":"ZMB","name":"Zambia"}},{"arcs":[[-5,260,-258]],"type":"Polygon","properties":{"id":"MWI","name":"Malawi"}},{"arcs":[[-4,261,-126,262,-124,-194,-259,-261]],"type":"Polygon","properties":{"id":"MOZ","name":"Mozambique"}},{"arcs":[[-125,-263]],"type":"Polygon","properties":{"id":"SWZ","name":"Eswatini"}},{"arcs":[[[-61,-260,-198,263]],[[-63,264,-252]]],"type":"MultiPolygon","properties":{"id":"AGO","name":"Angola"}},{"arcs":[[-8,-69,265]],"type":"Polygon","properties":{"id":"BDI","name":"Burundi"}},{"arcs":[[266,267,268,269,270,271,272,273]],"type":"Polygon","properties":{"id":"ISR","name":"Israel"}},{"arcs":[[-273,274,275]],"type":"Polygon","properties":{"id":"LBN","name":"Lebanon"}},{"arcs":[[276]],"type":"Polygon","properties":{"id":"MDG","name":"Madagascar"}},{"arcs":[[-268,277]],"type":"Polygon","properties":{"id":"PSE","name":"Palestine"}},{"arcs":[[-206,278]],"type":"Polygon","properties":{"id":"GMB","name":"The Gambia"}},{"arcs":[[279,280,281]],"type":"Polygon","properties":{"id":"TUN","name":"Tunisia"}},{"arcs":[[-11,282,283,-280,284,-223,-208,-213]],"type":"Polygon","properties":{"id":"DZA","name":"Algeria"}},{"arcs":[[-267,285,286,287,288,-269,-278]],"type":"Polygon","properties":{"id":"JOR","name":"Jordan"}},{"arcs":[[289,290,291]],"type":"Polygon","properties":{"id":"ARE","name":"United Arab Emirates"}},{"arcs":[[292,293]],"type":"Polygon","properties":{"id":"QAT","name":"Qatar"}},{"arcs":[[294,295,296]],"type":"Polygon","properties":{"id":"KWT","name":"Kuwait"}},{"arcs":[[-287,297,298,299,300,-297,301]],"type":"Polygon","properties":{"id":"IRQ","name":"Iraq"}},{"arcs":[[-291,302,303,304]],"type":"Polygon","properties":{"id":"OMN","name":"Oman"}},{"arcs":[[305]],"type":"Polygon","properties":{"id":"VUT","name":"Vanuatu"}},{"arcs":[[306,307,308,309]],"type":"Polygon","properties":{"id":"KHM","name":"Cambodia"}},{"arcs":[[-307,310,311,312,313,314]],"type":"Polygon","properties":{"id":"THA","name":"Thailand"}},{"arcs":[[-308,-315,315,316,317]],"type":"Polygon","properties":{"id":"LAO","name":"Laos"}},{"arcs":[[-314,318,319,320,321,-316]],"type":"Polygon","properties":{"id":"MMR","name":"Myanmar"}},{"arcs":[[-309,-318,322,323]],"type":"Polygon","properties":{"id":"VNM","name":"Vietnam"}},{"arcs":[[-105,324,325,326,327]],"type":"Polygon","properties":{"id":"PRK","name":"North Korea"}},{"arcs":[[-326,328]],"type":"Polygon","properties":{"id":"KOR","name":"South Korea"}},{"arcs":[[-107,329]],"type":"Polygon","properties":{"id":"MNG","name":"Mongolia"}},{"arcs":[[-321,330,331,332,333,334,335,336,337]],"type":"Polygon","properties":{"id":"IND","name":"India"}},{"arcs":[[-320,338,-331]],"type":"Polygon","properties":{"id":"BGD","name":"Bangladesh"}},{"arcs":[[-337,339]],"type":"Polygon","properties":{"id":"BTN","name":"Bhutan"}},{"arcs":[[-335,340]],"type":"Polygon","properties":{"id":"NPL","name":"Nepal"}},{"arcs":[[-333,341,342,343,344]],"type":"Polygon","properties":{"id":"PAK","name":"Pakistan"}},{"arcs":[[-38,345,346,-344,347,348]],"type":"Polygon","properties":{"id":"AFG","name":"Afghanistan"}},{"arcs":[[-37,349,350,-346]],"type":"Polygon","properties":{"id":"TJK","name":"Tajikistan"}},{"arcs":[[-31,351,-350,-36]],"type":"Polygon","properties":{"id":"KGZ","name":"Kyrgyzstan"}},{"arcs":[[-33,-39,-349,352,353]],"type":"Polygon","properties":{"id":"TKM","name":"Turkmenistan"}},{"arcs":[[-300,354,355,356,357,-353,-348,-343,358]],"type":"Polygon","properties":{"id":"IRN","name":"Iran"}},{"arcs":[[-274,-276,359,360,-298,-286]],"type":"Polygon","properties":{"id":"SYR","name":"Syria"}},{"arcs":[[-356,361,362,363]],"type":"Polygon","properties":{"id":"ARM","name":"Armenia"}},{"arcs":[[-116,364,365]],"type":"Polygon","properties":{"id":"SWE","name":"Sweden"}},{"arcs":[[-98,366,367,368,369]],"type":"Polygon","properties":{"id":"BLR","name":"Belarus"}},{"arcs":[[-97,370,371,372,373,374,375,376,-367]],"type":"Polygon","properties":{"id":"UKR","name":"Ukraine"}},{"arcs":[[-109,377,-368,-377,378,379,380,381]],"type":"Polygon","properties":{"id":"POL","name":"Poland"}},{"arcs":[[382,383,384,385,386,387,388]],"type":"Polygon","properties":{"id":"AUT","name":"Austria"}},{"arcs":[[-375,389,390,391,392,-383,393]],"type":"Polygon","properties":{"id":"HUN","name":"Hungary"}},{"arcs":[[-373,394]],"type":"Polygon","properties":{"id":"MDA","name":"Moldova"}},{"arcs":[[-372,395,396,397,-390,-374,-395]],"type":"Polygon","properties":{"id":"ROU","name":"Romania"}},{"arcs":[[-111,398,399,-369,-378]],"type":"Polygon","properties":{"id":"LTU","name":"Lithuania"}},{"arcs":[[-99,-370,-400,400,401]],"type":"Polygon","properties":{"id":"LVA","name":"Latvia"}},{"arcs":[[-100,-402,402]],"type":"Polygon","properties":{"id":"EST","name":"Estonia"}},{"arcs":[[-180,403,404,405,406,407,408,-381,409,-387,410]],"type":"Polygon","properties":{"id":"DEU","name":"Germany"}},{"arcs":[[-397,411,412,413,414,415]],"type":"Polygon","properties":{"id":"BGR","name":"Bulgaria"}},{"arcs":[[-414,416,417,418,419]],"type":"Polygon","properties":{"id":"GRC","name":"Greece"}},{"arcs":[[[-299,-361,420,421,-362,-355]],[[-413,422,-417]]],"type":"MultiPolygon","properties":{"id":"TUR","name":"Turkey"}},{"arcs":[[-419,423,424,425,426]],"type":"Polygon","properties":{"id":"ALB","name":"Albania"}},{"arcs":[[-392,427,428,429,430,431]],"type":"Polygon","properties":{"id":"HRV","name":"Croatia"}},{"arcs":[[-181,-411,-386,432]],"type":"Polygon","properties":{"id":"CHE","name":"Switzerland"}},{"arcs":[[-187,433,-404]],"type":"Polygon","properties":{"id":"LUX","name":"Luxembourg"}},{"arcs":[[-186,434,435,-405,-434]],"type":"Polygon","properties":{"id":"BEL","name":"Belgium"}},{"arcs":[[-406,-436,436]],"type":"Polygon","properties":{"id":"NLD","name":"Netherlands"}},{"arcs":[[437,438]],"type":"Polygon","properties":{"id":"PRT","name":"Portugal"}},{"arcs":[[-184,439,-438,440]],"type":"Polygon","properties":{"id":"ESP","name":"Spain"}},{"arcs":[[441]],"type":"Polygon","properties":{"id":"IRL","name":"Ireland"}},{"arcs":[[442]],"type":"Polygon","properties":{"id":"NCL","name":"New Caledonia"}},{"arcs":[[443]],"type":"Polygon","properties":{"id":"SLB","name":"Solomon Islands"}},{"arcs":[[[444]],[[445]]],"type":"MultiPolygon","properties":{"id":"NZL","name":"New Zealand"}},{"arcs":[[[446]],[[447]]],"type":"MultiPolygon","properties":{"id":"AUS","name":"Australia"}},{"arcs":[[448]],"type":"Polygon","properties":{"id":"LKA","name":"Sri Lanka"}},{"arcs":[[-30,-108,-330,-106,-328,449,-323,-317,-322,-338,-340,-336,-341,-334,-345,-347,-351,-352]],"type":"Polygon","properties":{"id":"CHN","name":"People's Republic of China"}},{"arcs":[[450]],"type":"Polygon","properties":{"id":"TWN","name":"Taiwan"}},{"arcs":[[-182,-433,-385,451,452]],"type":"Polygon","properties":{"id":"ITA","name":"Italy"}},{"arcs":[[-408,453]],"type":"Polygon","properties":{"id":"DNK","name":"Denmark"}},{"arcs":[[454]],"type":"Polygon","properties":{"id":"GBR","name":"United Kingdom"}},{"arcs":[[455]],"type":"Polygon","properties":{"id":"ISL","name":"Iceland"}},{"arcs":[[-94,456,-357,-364,457]],"type":"Polygon","properties":{"id":"AZE","name":"Azerbaijan"}},{"arcs":[[-95,-458,-363,-422,458]],"type":"Polygon","properties":{"id":"GEO","name":"Georgia"}},{"arcs":[[[459]],[[460]]],"type":"MultiPolygon","properties":{"id":"PHL","name":"Philippines"}},{"arcs":[[[-44,461,462,463]],[[-312,464]]],"type":"MultiPolygon","properties":{"id":"MYS","name":"Malaysia"}},{"arcs":[[-463,465]],"type":"Polygon","properties":{"id":"BRN","name":"Brunei"}},{"arcs":[[-384,-393,-432,466,-452]],"type":"Polygon","properties":{"id":"SVN","name":"Slovenia"}},{"arcs":[[-102,467,-365,-115]],"type":"Polygon","properties":{"id":"FIN","name":"Finland"}},{"arcs":[[-376,-394,-389,468,-379]],"type":"Polygon","properties":{"id":"SVK","name":"Slovakia"}},{"arcs":[[-380,-469,-388,-410]],"type":"Polygon","properties":{"id":"CZE","name":"Czech Republic"}},{"arcs":[[-83,469,470,471]],"type":"Polygon","properties":{"id":"ERI","name":"Eritrea"}},{"arcs":[[[472]],[[473]]],"type":"MultiPolygon","properties":{"id":"JPN","name":"Japan"}},{"arcs":[[-54,-145,-135]],"type":"Polygon","properties":{"id":"PRY","name":"Paraguay"}},{"arcs":[[-304,474,475]],"type":"Polygon","properties":{"id":"YEM","name":"Yemen"}},{"arcs":[[-288,-302,-296,476,-294,477,-292,-305,-476,478]],"type":"Polygon","properties":{"id":"SAU","name":"Saudi Arabia"}},{"arcs":[[[479]],[[480]]],"type":"MultiPolygon","properties":{"id":"ATA","name":"Antarctica"}},{"arcs":[[481,482]],"type":"Polygon","properties":{"id":"CYN","name":"Turkish Republic of Northern Cyprus"}},{"arcs":[[-483,483]],"type":"Polygon","properties":{"id":"CYP","name":"Cyprus"}},{"arcs":[[-14,484,-283]],"type":"Polygon","properties":{"id":"MAR","name":"Morocco"}},{"arcs":[[-81,485,486,-271,487]],"type":"Polygon","properties":{"id":"EGY","name":"Egypt"}},{"arcs":[[-80,-89,-224,-285,-282,488,-486]],"type":"Polygon","properties":{"id":"LBY","name":"Libya"}},{"arcs":[[-71,-76,489,-84,-472,490,491]],"type":"Polygon","properties":{"id":"ETH","name":"Ethiopia"}},{"arcs":[[-471,492,493,-491]],"type":"Polygon","properties":{"id":"DJI","name":"Djibouti"}},{"arcs":[[-72,-492,-494,494]],"type":"Polygon","properties":{"id":"SOL","name":"Somaliland"}},{"arcs":[[-10,495,-67,496,-74]],"type":"Polygon","properties":{"id":"UGA","name":"Uganda"}},{"arcs":[[-9,-266,-68,-496]],"type":"Polygon","properties":{"id":"RWA","name":"Rwanda"}},{"arcs":[[-429,497,498]],"type":"Polygon","properties":{"id":"BIH","name":"Bosnia and Herzegovina"}},{"arcs":[[-415,-420,-427,499,500]],"type":"Polygon","properties":{"id":"MKD","name":"North Macedonia"}},{"arcs":[[-391,-398,-416,-501,501,502,-498,-428]],"type":"Polygon","properties":{"id":"SRB","name":"Serbia"}},{"arcs":[[-425,503,-430,-499,-503,504]],"type":"Polygon","properties":{"id":"MNE","name":"Montenegro"}},{"arcs":[[-426,-505,-502,-500]],"type":"Polygon","properties":{"id":"KOS","name":"Kosovo"}},{"arcs":[[505]],"type":"Polygon","properties":{"id":"TTO","name":"Trinidad and Tobago"}},{"arcs":[[-66,-251,-85,-490,-75,-497]],"type":"Polygon","properties":{"id":"SSD","name":"South Sudan"}}]}}}