{"type":"Topology","arcs":[[[54296,41189],[35,0],[159,-197],[374,-311],[514,-316],[93,-116],[96,-73],[230,-236],[57,-36],[286,-34],[132,-27],[240,-191],[107,-103],[90,-51],[90,-153],[143,-192],[157,-244],[115,-100],[181,-114],[98,-77],[157,-215],[-52,-133],[-99,-43],[-448,-18],[-87,5],[-190,44],[60,-122],[-19,-191],[117,-18],[178,-98],[112,-46],[-3,-47],[-79,-57],[-116,-48],[50,-56],[116,-41],[51,55],[49,2],[72,67],[79,19],[522,10],[29,-127],[-5,-239],[8,-62],[-2,-259],[34,-186],[128,-167],[92,-59],[376,-116],[182,-89],[132,-87],[97,-91],[65,-179],[22,-96],[47,-401],[15,-187],[-7,-120],[80,-304],[38,-362],[14,-80],[96,-221],[119,-116],[310,-153],[142,-43],[139,-95],[212,-220],[125,-96],[263,-230],[353,-257],[237,-164],[299,-233],[82,-56],[104,-95],[113,-128],[193,-245],[160,-221],[59,-58],[212,-285],[44,-77],[178,-221],[134,-152],[45,-75],[165,-222],[80,-141],[252,-372],[105,-128],[260,-357],[48,-59],[77,-153],[143,-197],[121,-293],[54,-172],[2,-119],[71,-195],[61,-85],[112,-120],[44,-70],[23,-165],[-68,-197],[-24,-147],[-32,-71],[-60,-205],[1,-103],[22,-128],[73,-244],[-6,-299],[15,-204],[29,-97],[-90,-226],[-132,-195],[-104,-275],[-210,-344],[-68,-124]],[[63891,25328],[-95,-164],[-206,-323],[-115,-259],[-251,-453],[-123,-356],[-2150,352],[17,-1173],[7,-815],[12,-1492],[-1172,20],[-2727,47],[-1713,30],[-38,57],[17,162],[41,219],[12,291],[-15,105],[-328,-94],[-765,-211],[-84,-20],[-164,-90],[-384,-390],[-440,-453],[-103,-120],[-89,-134],[-150,-62],[-110,-14],[-99,16],[-708,290],[-230,-34],[-187,-6],[-159,12],[-1043,139],[-781,115],[-250,10],[-34,-71],[-93,-22],[-63,42],[-607,1],[-503,11],[-77,-24],[-176,-104],[-119,-94],[-209,-113],[-112,-40],[-287,-28],[-179,-73],[-429,-100],[-287,8],[-357,38],[-462,90],[-328,82],[-140,59],[-358,269],[-164,200],[-21,93],[-378,25],[-440,42],[-263,78],[-127,49],[-88,56],[-97,127],[-88,155],[-39,232],[0,198],[29,197],[98,317],[185,267],[196,113],[390,126],[201,89],[-82,9],[-312,87],[-214,-2],[2,155],[-88,23],[-128,-22],[-341,-41],[-128,8],[-324,-36],[-124,-91],[-234,-96],[-264,-57],[-275,-10],[-390,0],[-289,-8]],[[40701,22744],[-96,77],[-77,463],[-78,168],[-36,49],[-116,63],[-36,67],[-48,145],[-31,153],[-28,41],[-119,96],[-24,136],[18,72],[120,224],[168,286],[78,197],[27,200],[-12,226],[-91,351],[-12,115],[-100,163],[-36,447],[-64,145],[-114,139],[-175,160],[-97,103],[-110,368],[-31,206],[17,211],[26,124],[77,231],[73,166],[157,242],[141,154],[174,164],[118,156],[101,251],[4,196],[-57,103],[-55,56],[-341,232],[-157,167],[-30,89],[15,82],[73,82],[95,56],[181,36],[116,119],[169,82],[234,67],[312,-21],[141,40],[140,78],[71,69],[51,150],[-14,60],[-53,63],[-76,45],[-130,34],[-120,10],[-229,-50],[-70,-24],[-295,25],[-112,36],[-141,87],[-69,78],[-28,63],[-17,131],[62,78],[137,38],[503,5],[214,-93],[189,-60],[195,-44],[221,-24],[137,18],[172,7],[29,138],[-15,88],[-91,33],[-474,10],[-194,-15],[-158,-1],[-66,51],[198,173],[336,262],[126,149],[99,199],[121,342],[16,119],[-8,103],[-87,80],[-168,52],[-228,28],[-316,27],[-198,-1],[108,171],[48,123],[20,239],[61,136],[-111,8],[-109,43],[-92,-10],[-251,63],[-233,103],[-55,100],[4,72],[137,151],[56,9],[156,-183],[34,-135],[63,-19],[161,92],[113,91],[159,78],[107,33],[87,73],[-24,39],[-85,57],[-198,95],[-151,61],[-314,46],[-144,-4],[-254,-33],[-180,-14],[-181,-39],[-58,16],[-52,64],[17,105],[115,71],[170,55],[302,147],[326,120],[109,18],[137,-45],[252,-43],[25,58],[-7,118],[28,109],[78,104],[5,110],[-66,34],[-107,8],[-171,-35],[-91,1],[-118,68],[11,156],[-25,85],[27,69],[183,29],[51,84],[45,25],[89,0],[161,-25],[157,18],[-36,83],[-110,83],[-113,41],[-210,44],[-41,23],[25,152],[330,170],[113,71],[98,14],[41,-46],[94,36],[-3,199],[-59,112],[-80,56]],[[41399,37314],[28,107],[-7,55],[-50,86],[88,23],[37,-64],[56,14],[28,-64],[47,-34],[212,-9],[90,21],[56,81],[128,-29],[150,40],[85,46],[25,54],[106,-27],[195,43],[191,-4],[156,33],[-17,109],[16,105],[43,44],[-28,73],[94,63],[21,80],[-41,29],[51,82],[45,24],[133,214],[27,171],[-6,53],[45,40],[155,-27],[290,-14],[59,139],[35,47],[-89,70],[5,107],[28,88],[-34,56],[16,136],[31,12],[164,-34],[49,-26],[137,164],[43,91],[115,6],[45,75],[54,13],[63,135],[49,51],[31,110],[163,5],[193,-19],[334,-10],[18,107],[52,207],[-50,33],[85,106],[109,196],[137,2],[6,80],[-161,7],[23,54],[208,42],[147,-12],[52,39],[45,84],[-25,69],[136,71],[225,-42],[53,-27],[67,9],[33,-50],[113,-24],[122,3],[72,-44],[99,-4],[78,49],[29,85],[97,64],[113,42],[129,-90],[89,-112],[-6,-49],[55,-62],[181,-85],[55,-74],[-58,-141],[-58,-91],[-9,-202],[18,-127],[-2,-93],[-32,-56],[-52,-172],[9,-117],[53,-111],[16,-71],[63,-135],[83,30],[103,133],[140,40],[117,-15],[45,-58],[-57,-95],[30,-39],[197,99],[189,70],[133,2],[186,-37],[50,31],[180,25],[334,64],[98,74],[38,-15],[115,137],[42,155],[-31,192],[-148,100],[-127,160],[-86,76],[-6,148],[-16,104],[34,57],[191,22],[209,47],[446,-23],[20,-17],[293,31],[66,31],[74,-13],[35,-36],[82,-22],[132,28],[14,-71],[114,16],[117,-57],[136,-11],[164,-79],[68,32],[271,-76],[31,-58],[-48,-55],[-132,-69],[-155,-147],[2,-63],[57,-67],[-9,-60],[28,-40],[76,-14],[168,44],[362,116],[212,32],[73,-88],[382,7],[76,11],[70,43],[172,68],[81,4],[38,206],[120,107],[222,39],[-105,84],[-97,181],[110,51],[89,-63],[98,-22],[17,29],[-34,189],[29,188],[43,10],[191,-17],[381,-3]],[[54296,41189],[-167,133],[-88,89],[-88,182],[-34,200],[71,20],[145,12],[317,87],[75,11],[49,95],[67,75],[130,96],[-35,199],[15,100],[-36,34],[38,68],[104,53],[90,19],[98,75],[11,143],[156,79],[42,147],[73,78],[37,106],[-1,81],[-58,242],[21,145],[53,198],[-69,38],[7,47],[-136,15],[-95,-14],[-48,51],[-72,156],[-61,87],[-197,186],[-37,114],[-57,25],[-112,130],[27,122],[130,-13],[-9,69],[57,105],[75,95],[177,166],[122,94],[-146,20],[-76,224],[-213,139],[-189,67],[-61,80],[-60,33],[-109,131],[-63,22],[-5,178],[93,180],[75,102],[57,45],[98,114],[225,224],[121,94],[98,114],[70,159],[24,119],[-22,180],[86,20],[52,143],[0,49],[-141,34],[-28,127],[28,38],[135,-57],[172,7],[55,-14],[208,56],[74,-11],[51,-55],[62,-23],[121,4],[113,23],[140,79],[82,94],[154,40],[76,-3],[134,-38],[164,-73],[131,-35],[217,-31],[92,-1],[167,40],[237,94],[100,57],[81,96],[9,143],[-94,78],[-133,88],[-38,78],[-175,222],[-41,175],[-241,158],[-132,60],[-131,19],[-141,-18],[-147,27],[-65,64],[-13,86],[75,116],[112,17],[174,-22],[46,7],[7,92],[-135,179],[-99,168],[-44,45],[-210,-66],[-107,7],[-224,71],[81,62],[63,84],[95,187],[90,253],[41,137],[21,170],[62,68],[76,6],[291,-51],[67,36],[37,52],[242,50],[163,-76],[172,-105],[186,-76],[193,-36],[198,-6],[92,18],[138,66],[125,199],[53,138],[0,58],[-38,137],[-66,121],[-147,111],[-130,148],[-43,124],[-7,84],[46,166],[119,136],[93,84],[33,57],[152,126],[118,157],[188,124],[141,144],[84,142],[14,64],[-17,109],[-2,140],[-52,143],[-80,134],[-21,172],[38,93],[105,94],[99,23],[338,15],[550,4],[245,-36],[209,9],[127,40],[400,192],[174,-22],[260,-84],[251,-103],[120,-24],[77,5],[165,63],[150,107],[75,71],[126,240],[43,127],[100,162],[55,65],[172,116],[174,68],[54,64],[43,150],[13,147],[-9,111],[20,69],[102,67],[235,93],[74,95],[8,130],[-27,120],[-78,215],[31,173],[61,97],[134,147],[334,285],[361,216],[166,44],[139,93],[124,43],[94,51],[132,113],[159,187],[23,109],[-7,71],[-59,121],[-153,176],[-146,88],[-186,85],[-310,90],[-136,47],[-155,85],[-166,138],[-114,123],[28,84],[122,109],[416,159],[169,110],[170,141],[269,309],[192,40],[112,-17],[271,7],[199,-10],[170,-29],[116,-36],[56,13],[-6,98],[-89,76],[-121,49],[-52,78],[56,113],[127,71],[313,12],[154,-18],[101,12],[311,17],[240,30],[144,41],[76,47],[96,111],[125,24],[143,49],[181,79]],[[67790,60802],[69,-74],[20,-69],[47,-13],[57,-62],[91,-68],[73,-29],[89,-103],[71,9],[115,-14],[9,-36],[99,-5],[39,40],[72,-46],[206,-27],[31,39],[90,-64],[78,23],[160,-53],[47,6],[70,-47],[70,10],[176,-61],[164,0],[180,-24],[86,31],[110,-12],[104,30],[-62,55],[-84,18],[35,87],[66,54],[-33,63],[71,50],[-6,33],[106,60],[28,93],[63,25],[116,103],[107,36],[114,-13],[88,-41],[99,-2],[86,-81],[16,-144],[57,-8],[-23,-150],[-60,-26],[-30,-67],[7,-95],[-199,15],[-8,-58],[-106,2],[-38,-22],[-23,-87],[-71,-10],[-81,30],[-39,-147],[-142,12],[-20,71],[-107,-7],[-40,-116],[-69,-87],[-68,-40],[5,-65],[207,-65],[181,53],[63,6],[47,58],[101,-52],[6,67],[172,13],[12,-114],[29,-23],[-4,-129],[-43,-57],[-44,78],[-63,33],[-125,-17],[-109,-61],[-258,-2],[-21,-90],[-140,11],[-28,-76],[-8,-102],[32,-51],[-46,-180],[-70,-4],[-73,30],[-19,-82],[12,-87],[-135,-23],[4,-84],[190,-2],[-4,-94],[24,-72],[-18,-123],[27,-18],[290,-35],[134,-29],[-21,-50],[-81,-6],[-56,24],[-14,-107],[-109,25],[-166,11],[-24,-60],[-20,-163],[15,-46],[-40,-54],[109,10],[144,-73],[33,55],[158,15],[81,-8],[5,-110],[-84,-19],[-7,-130],[-81,-81],[19,-183],[100,-24],[45,17],[253,-88],[12,-142],[-14,-56],[184,-67],[-18,-38],[36,-122],[-78,-79],[-22,-154],[-142,-59],[-136,-108],[5,-111],[102,-18],[55,-57]],[[70534,56345],[-16,-106],[-113,-228],[43,-66],[-137,-51],[-118,-18],[-15,101],[-96,84],[-202,-224],[-63,-90],[-126,-243],[178,-119],[62,-223],[-82,17],[-133,4],[-94,-26],[-161,23],[-398,36],[-29,-17],[166,-67],[101,-149],[-23,-107],[-103,-62],[-217,-74],[-23,-29],[18,-274],[52,-45],[78,-19],[45,-50],[48,-160],[45,-67],[129,-136],[135,-235],[-95,-75],[-154,-168],[-117,-153],[-93,-49],[6,-92],[-47,-128],[-101,-108],[48,-50],[37,-111],[7,-247],[-14,-54],[-95,-100],[14,-99],[-102,-104],[-56,-112],[-163,114],[-33,67],[-301,39],[-214,-6],[-87,-32],[-298,18],[-86,-39],[-111,-99],[-57,-87],[-28,-106],[-48,-90],[5,-40],[-85,-173],[54,-126],[9,-102],[37,-154],[256,8],[359,20],[248,0],[40,25],[163,-101],[66,-13],[-41,-93],[-39,-169],[-11,-101],[18,-67],[-45,-43],[69,-98],[-76,-6],[-37,-52],[-113,-12],[-55,12],[42,122],[-169,45],[-42,37],[-52,-44],[-98,34],[-51,-35],[-84,29],[-67,83],[-122,10],[-5,52],[-81,-3],[88,-208],[-2,-85],[-47,-125],[1,-73],[38,-93],[-47,-40],[-16,-107],[27,-108],[73,-64],[-42,-57],[89,-127],[-19,-93],[28,-34],[83,-8],[170,10],[18,-36],[-46,-95],[229,-128],[26,-62],[166,-181],[-12,-261],[88,1],[69,50],[68,-74],[95,11],[-95,-220],[-101,-173],[6,-41],[157,-136],[157,36],[176,3],[-116,-240],[131,-48],[159,41],[90,38],[-31,-90],[57,-38],[-4,-80],[152,10],[119,-9],[62,-139],[-18,-316],[48,-27],[-4,-58],[-38,-68],[85,-97],[28,-102],[209,-129],[73,-65],[-133,-99],[244,-133],[24,-36],[77,-596],[171,-22],[85,33],[45,-57],[-7,-49],[-187,-6],[31,-132],[165,-26],[-62,-165],[205,4],[316,148],[87,-10],[-38,-111],[-154,-27],[-14,-97],[12,-52],[-123,11],[-177,-41],[-72,-195],[-12,-64],[-50,-92],[135,-79],[259,5],[32,-13],[75,-111],[30,-69],[3,-91],[-174,42],[-145,-123],[45,-112],[257,-61],[36,-45],[-137,-57],[78,-160],[93,-219],[191,-16],[-21,-88],[-148,-34],[6,-85],[101,-40],[3,-639],[20,-483],[-28,-158],[35,-43],[161,-75],[92,-348],[106,-65],[-11,-153],[123,-17],[1,-273],[93,-69],[140,-175],[84,-81],[169,-198],[172,-54],[187,-95],[112,-34],[52,-35],[72,-5],[23,35],[126,11],[145,56],[83,11],[14,34],[-113,16],[39,60],[11,104],[59,24],[14,92],[-194,8],[-61,70],[21,150],[-124,-5],[56,281],[-129,69],[8,178],[-97,150],[-90,257],[-92,52],[-9,165],[11,156],[-66,-1],[20,151],[-65,1],[32,116],[78,3],[50,205],[-7,66],[-138,5],[101,62],[121,106],[11,32],[-97,115],[277,30],[10,56],[-75,138],[-40,14],[-48,79],[335,17],[-144,135],[-67,4],[0,147],[55,12],[60,-103],[59,-51],[95,-11],[18,48],[-34,208],[-14,220],[151,-56],[29,-83],[60,-50],[-89,-182],[85,-71],[39,67],[77,-35],[142,46],[325,-30],[163,-7],[7,-52],[-114,-99],[-67,-23],[39,-100],[215,39],[99,-102],[166,-202],[-349,-70],[-50,-74],[142,-54],[3,-41],[363,118],[194,-184],[-43,-179],[-249,-34],[303,-135],[75,65],[80,-54],[236,53],[22,-46],[-70,-67],[139,-26],[-16,-62],[-203,-2],[-119,-37],[16,-93],[125,-5],[-73,-161],[-83,-71],[71,-90],[276,34],[5,-21],[-260,-98],[97,-78],[48,9],[68,-40],[100,-3],[-2,42],[118,33],[-8,-104],[-237,-136],[3,-50],[296,-30],[-70,-45],[17,-85],[83,2],[24,-55],[-167,-24],[-23,-143],[241,-4],[-70,-162],[231,-45],[6,-88],[-105,-53],[193,-293],[11,-32],[-191,-57],[-21,-76],[217,-1],[28,-14],[-64,-88],[-66,-175],[417,-4],[-178,-240],[-71,-69],[202,-10],[-117,-335],[39,-40],[87,-28],[122,33],[64,-11],[-15,-285],[378,-144],[68,-50],[166,94],[104,75],[70,-63],[112,50],[76,-68],[90,-1],[-8,-98],[126,-54],[42,-51],[-58,-30],[-83,59],[-73,-25],[-61,-69],[45,-19],[106,44],[42,-19],[-30,-84],[106,33],[63,-37],[-69,-51],[84,-64],[96,-35],[56,26],[-26,109],[56,69],[-28,113],[31,25],[97,-31],[70,-1],[71,42],[74,113],[15,72],[101,60],[-3,103],[44,16],[73,-48],[15,-74],[325,40],[118,-31],[68,19],[-12,52],[80,-9],[79,-44],[74,-7],[36,55],[80,37],[53,56],[112,24],[116,-27],[60,-68],[141,18],[-37,36],[62,51],[59,-49],[77,49],[68,124],[290,117],[88,27],[36,82],[167,126],[71,84],[108,25],[29,80],[135,65],[-4,103],[86,18],[71,-70],[-36,-67],[41,-92],[99,38],[-23,71],[60,11],[47,57],[-43,111],[0,47],[-93,121],[42,51],[-51,62],[-83,60],[63,71],[92,24],[86,-1],[82,-34],[159,-16],[-8,-95],[89,43],[146,-22],[-6,52],[119,-7],[-5,35],[57,81],[76,53],[-56,60],[68,48],[66,-27],[21,63],[254,143],[-100,48],[-103,23],[-87,-21],[-101,20],[29,76],[-23,108],[14,32],[-34,103],[-53,10],[-51,53],[59,200],[-121,7],[18,100],[50,72],[49,20],[-59,73],[-11,49],[-71,55],[-10,39],[59,104],[-77,37],[16,97],[-62,60],[46,47],[-108,60],[-74,18],[-51,42],[68,59],[10,58],[-70,69],[-86,39],[-68,115],[64,16],[-6,66],[-67,47],[69,55],[-29,48],[12,54],[-131,131],[2,117],[-98,-3],[-71,51],[62,101],[13,62],[-80,30],[-14,33],[43,57],[-26,55],[16,75],[-115,20],[-38,37],[-97,37],[-23,61],[-60,68],[-17,113],[116,93],[17,94],[-42,47],[-141,17],[-110,-8],[-150,18],[-36,48],[81,86],[178,97],[92,36],[480,265],[103,39],[12,53],[-64,150],[24,46],[147,67],[93,71],[13,83],[-51,182],[-94,230],[-8,104],[197,-21],[149,-120],[97,-56],[74,22],[10,143],[52,64],[129,33],[72,-46],[4,-175],[37,-191],[-42,-170],[-120,-115],[13,-16],[235,11],[102,17],[46,51],[53,194],[-6,158],[16,96],[75,108],[112,80],[206,69],[156,100],[193,92],[124,75],[132,111],[86,55],[308,137],[185,120],[51,56],[86,37],[124,1],[186,-56],[62,-2],[101,81],[77,87],[48,79],[59,9],[171,-41],[89,38],[29,59],[-5,144],[-28,242],[-29,89],[141,57],[9,35],[-68,129],[-67,28],[-1,46],[-100,52],[-66,57],[-3,121],[79,52],[89,16],[-8,61],[-83,112],[2,53],[-60,71],[21,45],[-31,84],[56,62],[-53,58],[19,93],[-52,65],[5,100],[-44,100],[-6,89],[-34,117],[26,132],[-31,43],[-10,84],[-41,58],[-78,53],[-6,84],[-89,111],[116,64],[-23,92],[19,30],[-63,119],[-51,35],[-29,63],[29,49],[9,123],[-47,71],[-6,61],[-101,140],[100,51],[70,81],[116,3],[38,22],[86,-25],[92,19],[-31,57],[-112,21],[7,88],[-33,37],[-18,126],[79,58],[-33,55],[-4,67],[61,3],[15,68],[47,65],[57,15],[162,-17],[37,-63],[191,64],[72,-163],[50,-4],[42,-171],[47,-44],[49,-164],[69,-79],[25,-101],[65,-126],[0,-45],[72,-132],[92,-9],[77,-115],[109,-14],[31,-63],[91,58],[121,-22],[-23,-69],[129,17],[69,-72],[131,-40],[34,-55],[167,-18],[96,26],[121,-17],[79,-39],[129,27],[74,-18],[169,39],[-28,99],[46,111],[-75,103],[102,117],[30,98],[76,-1],[93,-59],[41,12],[116,-27],[107,73],[-2,79],[80,69],[104,14],[30,65],[55,-37],[105,30],[44,82],[23,108],[121,73],[132,148],[76,57],[84,92],[12,70],[44,42],[103,32],[106,-17],[84,58],[202,5],[63,-18],[13,-65],[-33,-36],[22,-86],[-46,-62],[61,-76],[98,-31],[-11,-135],[89,-17],[114,53],[145,-60],[135,11],[44,-15],[52,-71],[48,-14],[63,-100],[55,-52],[-12,-47],[60,-89],[-108,-111],[-39,-11],[-20,-67],[31,-89],[-10,-77],[96,-63],[5,-87],[159,-22],[137,43],[115,187],[38,20],[-40,114],[6,45],[62,77],[-28,64],[90,100],[68,19],[59,51],[-6,58],[-112,237],[71,103],[192,70],[143,22],[136,-13],[81,-31],[133,-26],[95,-67],[35,-115],[118,-17],[36,-76],[72,-57],[35,-150],[-2,-165],[-26,-29],[-16,-102],[-110,-157],[-61,-42],[-124,-170],[-33,-124],[70,-13],[96,-58],[-42,-26],[-48,-86],[28,-108],[53,15],[-18,76],[222,-43],[113,-70],[21,-36],[-146,-17],[-54,-60],[-11,-98],[14,-71],[-33,-184],[65,28],[84,-58],[35,-101],[132,80],[19,-70],[101,-131],[23,-57],[-36,-46],[21,-80],[50,-10],[-45,-102],[120,-107],[-75,-102],[33,-45],[-12,-90],[-38,-35],[-15,-110],[104,8],[97,-97],[-7,-57],[-52,-46],[89,-97],[22,-117],[-21,-103],[28,-32],[19,-94],[-51,-37],[92,-59],[-95,-36],[-4,-28],[96,-53],[46,-153],[-73,-9],[-52,-61],[219,-45],[18,-87],[-91,-28],[6,-38],[114,-96],[-82,-48],[51,-99],[25,-129],[-17,-108],[119,38],[103,50],[96,-43],[15,-147],[29,-165],[32,-27],[128,10],[31,-44],[-2,-68],[-94,-4],[51,-150],[20,-97],[75,14],[-29,-97],[-57,-43],[23,-34],[157,11],[39,-39],[-161,-85],[35,-61],[105,-44],[36,8],[81,84],[34,-18],[-10,-71],[182,-49],[17,-68],[-53,-54],[69,-16],[26,-75],[-98,-94],[-22,-81],[7,-74],[-40,-59],[-183,-153],[48,-66],[207,20],[25,-30],[-20,-81],[21,-30],[107,-53],[72,-56],[-60,-81],[16,-111],[-38,-45],[-19,-79],[109,-66],[29,-95],[88,-184],[-129,-6],[24,-75],[113,-59],[18,-32],[-42,-96],[107,-123],[73,-30],[-44,-62],[-303,-11],[-292,2],[-435,-10],[3,-89],[43,-39],[39,-91],[12,-150],[-13,-92],[-26,-32],[-10,-236],[18,-112],[73,4],[66,-68],[-94,-2],[39,-68],[13,-114],[30,-30],[19,-88],[76,-104],[-39,-11],[-35,-76],[10,-104],[-68,-83],[-19,-86],[155,-106],[68,-21],[-30,-72],[-44,-26],[-128,-224],[38,-25],[50,-101],[103,-41],[84,-84],[10,-43],[62,-45],[108,4],[65,-126],[45,-33],[-11,-95],[75,-63],[12,-80],[65,-66],[-3,-76],[40,-29],[-77,-54],[-29,-135],[-99,-43],[-9,-85],[40,-71],[-26,-125],[-37,-48],[-39,-107],[65,-27],[25,-70],[-35,-84],[35,-97],[35,-35],[-63,-56],[40,-73],[-17,-68],[-71,-10],[28,-59],[-73,-23],[-80,-65],[-6,-69],[18,-155],[23,-35],[7,-114],[-72,-100],[45,-104],[-66,-27],[74,-44],[16,-51],[175,-3],[240,30],[112,-79],[-81,-175],[67,-48],[58,-8],[8,72],[60,24],[135,-52],[38,1],[108,72],[38,-1],[-7,-158],[26,-76],[124,-148],[108,-78],[3,-73],[77,5],[190,172],[70,-102],[6,-125],[-20,-85],[41,-52],[210,-74],[-67,-30],[-38,-53],[46,-97],[92,13],[1,-45],[70,-32],[-7,-34],[-111,-21],[47,-36],[-12,-92],[85,-55],[-110,-7],[-25,-66],[87,-95],[-53,-50],[-89,-36],[66,-64],[-62,-46],[78,-24],[-6,-45],[56,-143],[64,51],[33,-45],[-35,-81],[115,-69],[9,-58],[-27,-128],[20,-82],[60,-21],[-9,-43],[55,-114],[-36,-46],[19,-131],[46,-30],[10,-70],[35,-19],[-18,-69],[29,-37],[118,-62],[267,-67],[69,-35],[96,30],[44,-20],[52,-146],[150,-117],[11,-119],[-68,-78],[34,-57],[71,-226],[-1,-70],[82,-157],[-1,-77],[65,-26],[10,-119],[61,-16],[-45,-69],[-60,-39],[-2,-66],[57,-18],[-49,-53],[17,-171],[58,-64],[-14,-46],[114,0],[-1,-78],[-99,-122],[48,-23],[-21,-73],[71,-54],[-42,-124],[94,-74],[57,-105],[-51,-36],[-44,-94],[95,-7],[15,-144],[-11,-37],[-96,-42],[-124,10],[21,-108],[-110,-125],[97,-27],[85,-74],[22,-42],[-11,-89],[115,5],[4,-55],[45,-18],[-3,-63],[38,-46],[-1,-74],[-33,-19],[155,-221],[57,-7],[26,-124],[-53,6],[-32,-102],[-88,-61],[55,-190],[-23,-152],[49,-25],[-30,-68],[21,-123],[91,-101],[-38,-39],[41,-40],[23,-71],[-26,-71],[13,-88],[75,-136],[0,-118],[-73,-62],[73,-56],[-35,-44],[-1,-95],[79,23],[25,-59],[-48,-23],[97,-64],[-69,-28],[71,-53],[36,-106],[-10,-93],[-38,-18],[48,-167],[84,-43],[11,-102],[26,-62],[66,-18],[68,-184],[-9,-87],[43,-44],[-31,-127],[22,-87],[84,-43],[-16,-53],[50,-58],[-4,-114],[40,-131],[-8,-134],[-70,-67],[-28,-124],[85,-50],[-39,-27],[36,-48],[-102,-39],[33,-84],[182,-95],[-53,-43],[77,-24],[57,-71],[32,-237],[-23,-88],[-55,-90],[27,-119],[-25,-93],[118,-165],[20,-153],[36,-123],[-26,-142],[34,-64],[-17,-57],[235,-31],[29,-51],[-19,-197],[65,-347],[-75,-14],[11,-53],[-19,-95],[-141,-37],[-99,24],[-98,76],[27,139],[-17,32],[-258,50],[-139,-103],[-162,-38],[-71,-107],[57,-64],[170,-99],[38,-48],[31,-123],[129,-188],[-3,-101],[112,-120],[47,-20],[1,-97],[46,-157],[64,-60],[112,-41],[1,-63],[-28,-92],[-118,-144],[-9,-45],[51,-122],[103,-69],[19,-137],[-37,-78],[-18,-117],[23,-45],[117,-85],[53,-14],[88,-117],[5,-108],[-137,-70],[2,-47],[51,-94],[-4,-49],[68,-86],[6,-113],[46,-76],[-31,-123],[116,-163],[-31,-82],[183,-311],[92,-254],[65,-300],[32,-46],[-37,-249],[-113,-15],[-95,5],[-74,-118],[-77,-47],[-24,-103],[64,-148],[-18,-75],[125,-52],[-3,-94],[-236,-97],[-8,-94],[-37,-153],[28,-68],[-13,-57],[40,-41],[2,-125],[23,-40],[0,-96],[-24,-147],[-39,-58],[-20,-123],[-49,-55],[48,-43],[7,-48],[-58,-69],[26,-70],[16,-165],[-61,-105],[-55,-181],[0,-82],[-25,-70],[26,-61],[101,-141],[3,-72],[-34,-118],[-19,-230],[-44,-111],[10,-67],[85,-227],[8,-65],[64,-208],[-27,-328],[9,-332],[38,-101],[98,-152],[1,-138],[17,-124],[71,-303],[7,-174],[-24,-130],[65,-93],[12,-123],[82,-190],[12,-70],[-20,-185],[28,-185],[25,-80],[61,-91],[16,-139],[21,-51],[120,-177],[22,-67],[14,-163],[116,-327],[90,-117],[7,-52],[-28,-118],[37,-226],[49,-194],[130,-250],[56,-163],[96,-235],[133,-117],[55,-97],[83,-69],[24,-54],[18,-126],[-19,-39],[-84,-35],[-200,-35],[-138,-51],[-108,-26],[-67,53],[-52,-12],[-66,-84],[-51,-32],[-61,17],[-107,-23],[-108,-62],[-59,-83],[-95,-63],[-61,-88],[19,-73],[-101,-34],[-263,-15],[-131,-52],[-74,33],[-66,238],[-40,302],[-85,123],[-29,121],[-98,218],[-100,248],[-75,246],[-48,77],[-5,50],[-65,108],[-3,86],[-82,118],[18,133],[-67,154],[-69,66],[-87,-27],[-235,-29],[-135,-47],[-112,-75],[-133,-35],[-127,70],[-94,9],[-74,33],[-76,-17],[32,-110],[-2,-96],[27,-35],[-35,-49],[-220,-137],[-56,48],[-212,52],[-180,-54],[-66,10],[-61,119],[-188,54],[-108,64],[-116,-26],[-50,-49],[-68,35],[-93,-25],[-68,23],[-34,101],[-141,17],[1,62],[-48,40],[-13,258],[77,115],[12,132],[-55,122],[-49,238],[-54,54],[-161,109],[-95,-1],[-181,190],[5,62],[-108,53],[-62,52],[-115,129],[-63,32],[-90,82],[-77,49],[-125,-59],[-134,34],[-92,-87],[-159,-128],[-60,-20],[-13,-50],[-77,18],[-108,58],[-45,-86],[-18,-170],[-38,-54],[-59,-17],[21,-173],[-46,-35],[-157,-34],[-4,-99],[62,-16],[-9,-99],[-111,-36],[-96,10],[-106,46],[-40,-59],[-60,-6],[-94,30],[-55,59],[-67,14],[-75,-70],[-44,51],[-53,131],[-24,15],[-149,-29],[-82,0],[-71,-24],[-178,-1],[-10,-227],[-110,-82],[28,-66],[100,-83],[-97,-23],[-43,-52],[-148,-73],[-50,-93],[64,-115],[-30,-56],[-60,-45],[42,-76],[91,-54],[-78,-48],[-56,-87],[-126,10],[-68,-31],[-75,1],[-181,-39],[-7,-61],[-75,9],[-71,37],[-39,-53],[-151,-42],[-51,-96],[-127,-60],[-25,-49],[-81,-7],[-104,-82],[15,-140],[27,-60],[-19,-113],[147,-222],[95,-119],[-14,-29],[135,-86],[45,-61],[-28,-144],[55,-106],[5,-113],[-59,-19],[-91,-116],[48,-48],[102,-172],[36,-21],[-81,-104],[-134,-56],[11,-49],[-80,-73],[-25,-114],[-44,-36],[-82,-111],[-86,11],[-227,-125],[-111,-145],[-122,-39],[-30,-46],[14,-70],[-14,-97],[71,-168],[108,-13],[235,75],[149,-32],[78,-184],[-5,-67],[-75,-67],[-32,-67],[69,-235],[131,-84],[224,65],[127,-41],[123,-203],[95,-184],[256,-136],[181,-117],[93,-43],[100,-194],[23,-85],[-59,-106],[-98,-96],[-79,-225],[10,-212],[206,-197],[116,-322],[53,-190],[-22,-628],[8,-40],[283,-352],[202,-158],[456,-380],[126,-277],[95,-232],[126,-275],[136,-376],[199,-636],[295,-406],[28,-58],[-35,-60],[7,-74],[75,-238],[93,-93],[7,-69],[-170,53],[-70,-31],[-91,-8],[-151,21],[-141,61],[-203,114],[-315,197],[-173,219],[-58,92],[-124,267],[-41,147],[-133,257],[-41,119],[-170,299],[-53,44],[-62,97],[-205,291],[-244,294],[-28,51],[-194,209],[-169,192],[-244,236],[-25,71],[-131,164],[-129,262],[-90,139],[-98,112],[-98,238],[-17,63],[-119,284],[-76,196],[-63,98],[-138,163],[-103,106],[-296,271],[-367,307],[-402,363],[-181,153],[-17,30],[-327,282],[-363,343],[-72,79],[-270,229],[-264,259],[-14,63],[-88,100],[-75,127],[21,57],[0,331],[-35,106],[26,151],[-63,181],[65,433],[10,150],[-33,105],[13,88],[35,80],[-109,201],[-5,94],[-86,125],[-77,53],[-30,140],[-124,302],[-90,173],[-8,53],[-61,125],[-65,91],[-302,326],[-64,93],[-78,50],[-179,175],[-39,59],[-193,177],[-96,69],[-195,174],[-151,116],[-89,121],[-36,73],[-73,62],[-33,90],[13,28],[148,30],[155,92],[95,36],[111,18],[108,-25],[4,95],[-150,146],[-146,174],[-154,-39],[-63,9],[-94,81],[-65,8],[-64,-95],[-174,-56],[-167,-22],[-74,-34],[-11,-193],[-79,-85],[-191,-28],[-100,43],[-70,9],[-146,-19],[-158,109],[-147,72],[-123,79],[-162,89],[-409,387],[-53,132],[-62,115],[18,94],[150,90],[17,141],[59,147],[-13,209],[-134,198],[-18,238],[-72,383],[28,382],[98,153],[136,254],[4,213],[28,91],[63,110],[84,78],[70,119],[63,50],[81,166],[-298,113],[-68,40],[179,396],[612,1069],[227,500],[15,147],[221,-22],[-23,90],[-11,269],[-117,250],[-62,305],[-3,111],[51,120],[0,67],[-47,36],[-113,47],[-5,73],[-47,20],[-98,-24],[-261,10],[-49,81],[35,277],[65,244],[2,181],[61,329],[-30,157],[-79,48],[-45,172],[13,75],[44,115],[-8,51],[-62,24],[-126,149],[-82,144],[49,18],[-116,159],[-39,108],[-22,125],[-46,25],[13,74],[-54,213],[-33,17],[-172,-11],[-119,32],[-98,95],[-172,263],[-5,35],[-78,185],[-83,89],[-65,122],[-83,63],[-84,181],[-21,151],[-36,119],[112,157],[-38,151],[-107,62],[-190,136],[-253,92],[-170,112],[-28,177],[29,22],[-47,97],[18,51],[-83,163],[-225,201],[-94,49],[-74,116],[-69,333],[-137,882],[-65,307],[199,1],[-16,42],[-86,90],[-46,158],[9,71],[-92,95],[-38,69],[-222,-4],[-765,-5],[-619,-15],[-409,-16],[-40,77],[-30,191],[-109,365],[-80,206],[-222,415],[-143,238],[-72,84],[-290,279],[-133,146],[-343,336],[-147,176],[-190,261],[-97,103],[-196,138],[-162,103],[-58,67],[-211,180],[-152,161],[-20,62],[6,96],[-44,51],[-283,153],[-164,145],[-44,64],[-64,-5],[-93,51],[-231,176],[-209,169],[-285,215],[-288,114],[-215,5],[-998,299],[17,-135],[67,1],[115,-50],[157,-133],[67,-130],[88,-84],[-14,-59],[-123,-162],[-79,14],[-212,115],[-166,108],[-73,19],[-26,-232],[17,-18],[-118,-111],[-57,-75],[-14,-86],[-211,19],[-93,19],[-169,9],[-133,32],[-141,7],[-303,-67],[-131,103],[-93,-38],[-461,-137],[-110,-104],[-109,-61],[-51,-72],[143,-122],[324,-293],[109,-108],[194,-240],[166,-252],[153,-282],[312,106],[150,-7],[101,-25],[58,-54],[15,-73],[-143,-53],[50,-36],[126,29],[15,-162],[-43,-60],[16,-36],[-27,-169],[-158,44],[-58,48],[44,192],[-42,-12],[-18,-126],[-35,-66],[-42,-11],[74,-133],[32,-85],[-100,13],[-34,-24],[-117,-17],[66,-55],[0,-54],[-93,-41],[-60,-78],[-75,-5],[-125,73],[8,-67],[-26,-60],[-83,13],[-1,-66],[-151,1],[-68,-72],[-9,-54],[-125,7],[-135,-66],[-24,55],[-165,241],[-182,152],[-166,163],[2,126],[52,186],[30,64],[-343,1],[-317,19],[-41,-77],[225,-133],[339,-213],[-230,-200],[-146,-41],[-236,5],[-226,43],[-185,-18],[-175,-3],[-100,-20],[-165,52],[-231,-5],[126,-529],[27,-97],[-38,-169],[25,-13],[377,-6],[121,10],[159,-98],[30,-314],[46,-299],[56,-905],[-196,3],[-666,213],[295,-842],[161,-778],[-9,-116],[-98,-12],[-295,17],[-58,-54],[-1,-92],[41,-141],[6,-162],[-126,-320],[-86,-58],[-6,-156],[-23,-134],[-26,-49],[-27,-134],[-158,-162],[-94,-14],[-78,-128],[-85,-21],[-162,-94],[-86,-88],[-167,-119],[-64,-64],[-176,-115],[-327,-26],[-30,-70],[-162,-11],[-179,-122],[-27,-70],[-312,-224],[-227,-145],[1,-38],[-111,-63],[-165,-49],[-50,-61],[-76,-29],[-281,101],[-232,160],[-55,176],[-3,74],[-598,51]],[[92366,765],[87,-6],[47,-25],[-68,-152],[-9,-118],[43,-73],[30,-135],[54,-86],[-15,-69],[5,-98],[-99,-3],[-51,63],[-5,108],[50,41],[-25,99],[-12,144],[-122,113],[-90,51],[54,102],[45,-2],[81,46]],[[82664,22044],[97,1],[109,-33],[227,-337],[85,-168],[27,-103],[8,-121],[-10,-174],[-20,-95],[-53,-118],[-126,-238],[-191,-295],[-129,-303],[-75,-194],[-226,-419],[-103,-241],[-36,-107],[-118,-75],[-2,-102],[30,-71],[-11,-78],[-57,-54],[-194,-17],[-105,36],[-3,144],[21,68],[-22,54],[24,138],[60,209],[92,114],[156,136],[5,47],[-60,444],[24,62],[112,122],[44,84],[14,75],[-27,184],[-128,275],[-66,81],[37,280],[88,71],[10,84],[-23,39],[33,44],[-33,109],[5,50],[48,39],[174,92],[118,122],[41,81],[69,47],[60,11]],[[65581,23636],[13,49],[93,89],[40,-29],[-38,-67],[-108,-42]],[[65809,24203],[-25,-47],[-82,-9],[-124,-88],[-126,-134],[-192,-98],[-44,117],[11,99],[28,46],[-5,70],[-47,40],[-50,-66],[-79,-12],[6,92],[101,47],[50,3],[284,99],[241,23],[62,-13],[32,-81],[-41,-88]],[[64761,24703],[197,2],[77,-57],[59,-78],[10,-62],[-198,-329],[-70,-159],[-87,-66],[-112,-41],[-39,-39],[-128,14],[-18,50],[77,29],[29,75],[-193,-103],[-106,-70],[-169,-66],[-98,-68],[-149,-37],[-103,82],[-105,37],[-71,119],[-24,160],[-40,43],[-14,218],[16,147],[113,162],[81,69],[351,231],[63,14],[152,-45],[124,-86],[231,-120],[144,-26]],[[72102,29142],[-130,23],[-157,194],[9,99],[232,140],[365,147],[73,14],[60,-21],[47,-113],[-15,-72],[-38,-53],[-125,-113],[-202,-84],[-24,-49],[7,-67],[-102,-45]],[[69523,30097],[-80,18],[-138,232],[-4,45],[108,99],[71,26],[93,0],[142,-140],[25,-58],[-46,-130],[-67,-51],[-104,-41]],[[69970,30615],[-131,34],[-6,53],[41,35],[91,-14],[23,-67],[-18,-41]],[[71684,33273],[-121,20],[-58,29],[20,86],[108,-69],[51,-66]],[[71602,33236],[-30,-130],[22,-96],[-78,4],[-122,-46],[-124,98],[-83,100],[-75,68],[-97,144],[-52,38],[132,16],[112,-2],[46,-45],[73,44],[73,6],[56,-35],[32,-99],[115,-65]],[[76003,31244],[140,-231],[91,-182],[-6,-72],[59,-102],[-25,-59],[42,-95],[79,-78],[34,-59],[-10,-47],[-165,-129],[20,-56],[-24,-114],[-58,-59],[-81,-46],[-144,-50],[-255,-21],[-127,-61],[-167,-58],[-196,-1],[-132,-24],[-204,40],[-91,37],[-69,-4],[-97,35],[-168,9],[-112,48],[-94,80],[-185,-11],[-119,-91],[-39,-10],[-285,22],[-139,37],[-203,100],[-100,128],[-172,104],[-245,77],[-13,104],[-131,46],[-335,90],[-48,90],[344,24],[-116,120],[-60,252],[-15,164],[-109,7],[-38,169],[4,157],[0,835],[5,129],[28,75],[123,111],[501,1],[-94,185],[3,63],[84,180],[61,89],[93,83],[73,89],[328,181],[36,-1],[321,-79],[191,-104],[281,-215],[270,-227],[246,-226],[356,-373],[134,-160],[316,-331],[149,-189],[185,-295],[74,-101]],[[41399,37314],[-124,28],[-115,183],[-66,49],[-67,16],[-104,55],[-42,47],[-17,85],[11,102],[-55,28],[-121,9],[-137,-9],[-285,13],[-261,77],[-161,17],[26,-105],[-36,-110],[-187,49],[-210,88],[-95,-2],[-178,57],[-41,26],[18,74],[151,62],[133,10],[-143,149],[-72,121],[-22,106],[-97,67],[-64,65],[-129,99],[-161,78],[-90,23],[-143,10],[-132,54],[128,240],[-11,118],[-78,121],[-176,84],[-38,51],[5,123],[77,136],[-78,41],[-191,53],[-322,41],[-147,47],[-93,73],[-32,48],[-57,295],[-71,128],[-98,135],[-161,28],[-114,1],[-67,19],[-57,79],[24,46],[153,177],[2,25],[-92,136],[-256,26],[-405,125],[-181,86],[-207,137],[-24,35],[-123,97],[-66,75],[-54,138],[92,86],[146,26],[129,-28],[123,-65],[50,-69],[45,-107],[52,-37],[124,66],[38,89],[48,36],[76,-20],[111,20],[97,-25],[131,62],[165,34],[51,31],[62,143],[-67,143],[-154,127],[-35,43],[12,83],[58,99],[109,57],[78,14],[399,9],[81,33],[21,48],[-48,59],[-78,43],[-141,37],[-142,-16],[-143,12],[-220,-46],[-331,-117],[-202,-104],[-148,-108],[-65,-32],[-133,33],[-113,139],[-76,117],[-19,62],[33,120],[16,139],[50,125],[112,95],[-99,9],[51,60],[50,111],[-62,93],[-287,250],[-78,28],[-104,-6],[-15,-28],[-145,-9],[-185,-54],[-214,-38],[-118,64],[-47,177],[31,128],[116,121],[190,109],[271,65],[88,-6],[136,34],[-77,76],[-96,44],[-145,45],[-246,35],[-172,-14],[-97,26],[-180,105],[-62,98],[73,43],[-159,211],[-100,164],[-111,103],[64,108],[82,54],[-75,17],[-92,166],[56,200],[-18,81],[-94,63],[-56,75],[129,43],[177,0],[-139,333],[-72,224],[-20,152],[-11,189],[-16,65],[18,90],[118,230],[-26,185],[-19,34],[-277,188],[-140,79],[-207,95],[-429,135],[-187,39],[-354,103],[-237,2],[-107,-80],[16,-69],[-52,-134],[-95,15],[-17,-47],[133,-161],[11,-62],[-70,-64],[-101,-21],[-139,4],[-134,57],[-75,92],[-33,120],[3,198],[33,105],[49,98],[117,100],[194,77],[217,58],[181,1],[76,-17],[128,15],[92,94],[-41,47],[-207,46],[-143,7],[-254,74],[-63,54],[-120,217],[3,178],[-35,91],[-139,112],[-107,101],[-71,40],[-197,12],[-58,35],[32,76],[163,124],[120,132],[8,59],[-29,68],[-157,117],[-128,50],[-384,60],[-210,5],[-66,12],[-100,87],[33,98],[61,51],[9,53],[-103,103],[-378,164],[-182,161],[-57,20],[-151,-16],[-242,-58],[-217,-63],[76,-58],[-83,-53],[-177,-38],[-72,9],[-144,69],[-271,9],[23,111],[-34,87],[-187,94],[-198,118],[-176,114],[-31,185],[-179,93],[-37,168],[-31,42],[-80,44],[-180,31],[91,101],[75,46],[86,-12],[22,40],[99,4],[37,102],[54,51],[69,167],[-141,-15],[-111,31],[53,63],[-33,51],[80,10],[93,-16],[230,50],[0,199],[-29,65],[21,161],[78,131],[64,136],[13,86],[-39,13],[18,79],[82,6],[12,51],[78,85],[153,50],[-17,141],[23,45],[-2,143],[135,75],[19,63],[52,-5],[22,71],[-86,27],[65,92],[-48,77]],[[28903,54534],[10,53],[164,-4],[43,57],[-34,65],[11,193],[232,-17],[258,-41],[61,-34],[304,-303],[438,-186],[165,-81],[228,-134],[317,-206],[94,-51],[374,-144],[219,-73],[10,-41],[373,-131],[346,-101],[181,-7],[305,-30],[23,46],[147,-43],[144,-26],[9,-55],[285,-35],[176,106],[94,8],[297,-38],[238,10],[377,-39],[193,25],[34,53],[106,49],[218,-50],[-27,-40],[152,-36],[184,9],[219,38],[431,31],[69,17],[150,71],[163,97],[174,36],[96,57],[-11,144],[-96,40],[-219,190],[-89,60],[-79,156],[-74,45],[-23,116],[-71,6],[-61,-79],[-69,28],[120,115],[-50,113],[24,42],[90,44],[-23,58],[-81,7],[-10,50],[46,38],[-75,198],[16,20],[-36,178],[-156,0],[-61,23],[41,58],[-25,105],[-44,56],[119,61],[100,-11],[-14,395],[4,222],[26,118],[54,73],[141,128],[402,243],[253,108],[143,37],[207,23],[98,-13],[142,2],[107,21],[141,47],[153,70],[70,61],[-28,88],[108,17],[122,45],[226,190],[225,140],[134,173],[32,91],[11,101],[-13,113],[-85,104],[-54,156],[8,118],[-7,238],[87,166],[-46,42],[-174,61],[-77,77],[-42,117],[-51,32],[-252,-50],[-61,-1],[-92,45],[-52,97],[74,61],[77,31],[268,33],[-100,306],[-82,160],[-20,71],[-93,237],[-47,200],[-21,165],[4,111],[21,61],[76,119],[31,124],[7,112],[-36,189],[-93,131],[-180,108],[-54,83],[-18,126],[31,99],[-7,95],[-35,94],[-43,57],[-147,94],[-171,71],[-88,95],[-8,66],[57,137],[197,142],[41,49],[24,102],[-9,92],[-60,166],[198,22],[-44,65],[54,10],[-44,71],[-83,48],[-125,30],[-66,-52],[-49,74],[-138,266],[-23,172],[35,84],[130,181],[-245,6],[-23,263],[151,33],[117,111],[68,85],[-50,17],[-118,-64],[-50,30],[17,63],[170,192],[-45,126],[-78,-13],[-81,104],[-78,8],[-94,49],[-64,1],[-42,72],[72,59],[66,8],[119,-46],[27,33],[25,123],[-76,27],[34,53],[-11,62],[263,-10],[83,42],[119,5],[-13,158],[-25,112],[23,74],[89,65],[117,45],[210,101]],[[38121,65917],[42,-39],[77,-19],[187,-11],[79,18],[101,115],[109,14],[14,42],[-114,20],[24,45],[-56,35],[50,33],[85,-63],[99,106],[126,-15],[17,25],[-112,93],[14,49],[135,89],[-80,66],[2,47],[81,30],[103,-36],[22,86],[105,26],[2,111],[175,-86],[41,74],[-124,87],[-79,95],[101,38],[6,45],[-77,38],[-11,64],[37,24],[132,9],[162,-31],[80,10],[143,72],[-78,107],[5,57],[196,196],[49,75],[111,-58],[91,-22],[76,10],[100,47],[64,68],[-16,131],[-99,189],[-37,32],[-240,130],[-26,128],[35,122],[-38,86],[8,108],[72,84],[-18,70],[150,-12],[15,-38],[127,-65],[56,9],[89,-29],[175,6],[32,79],[81,63],[163,6],[11,56],[-91,68],[159,2],[121,34],[129,-62],[72,-158],[134,-13],[72,18],[137,-21],[81,-117],[-90,-33],[80,-55],[88,-95],[117,-50],[131,-4],[20,41],[117,-13],[55,60],[66,-33],[65,29],[-12,61],[25,73],[71,19],[59,48],[-26,64],[36,26],[237,14],[133,67],[26,75],[73,29],[53,68],[19,71],[-42,114],[47,52],[128,42],[16,27],[172,-8],[235,-53],[131,82],[148,28],[135,-9],[51,58],[148,26],[65,-29],[86,-104],[70,-25],[16,-65],[97,-99],[-14,-62],[44,-46],[-28,-39],[110,-22],[-16,-79],[-124,-1],[-46,-141],[37,-111],[93,-8],[293,-2],[444,22],[108,-63],[-29,-35],[-2,-89],[-107,-150],[39,-87],[64,-42],[-20,-64],[91,-109],[-50,-124],[41,-61],[62,-32],[68,-94],[75,-315],[-40,-32],[20,-84],[107,-48],[30,-72],[-47,-63],[16,-82],[44,-75],[-92,-179],[-106,-2],[-17,-57],[-89,-45],[-69,-9],[-4,-177],[-48,-115],[-53,-59],[114,-92],[207,-231],[138,5],[79,-17],[16,-36],[-105,-81],[175,-373],[70,-117],[48,-27],[130,21],[-12,-70],[137,-253],[81,61],[117,28],[59,-34],[22,-59],[72,-47],[90,2],[68,-41],[81,-1],[132,-49],[6,-29],[-134,-71],[19,-69],[78,-29],[85,40],[73,-25],[58,-66],[84,-33],[47,-84],[75,-60],[153,12],[40,43],[177,-93],[-84,-23],[-42,-37],[-96,-20],[-40,-48],[-154,-67],[-55,-107],[-252,-4],[-2,-103],[25,-85],[157,-45],[1,-74],[34,-161],[53,-21],[52,-86],[113,-134],[147,-54],[72,-50],[133,9],[-91,-283],[-38,-82],[-91,-251],[-77,-179],[-105,-296],[20,-100],[65,-73],[2,-52],[176,-39],[111,11],[4,-117],[37,-54],[99,-85],[84,-216],[-18,-130],[151,-137],[351,-20],[127,-154],[107,-8],[105,28],[89,75],[116,46],[101,75],[117,42],[100,67],[61,21],[158,-12],[172,-82],[136,-6],[160,96],[8,27],[114,-13],[15,-72],[-19,-122],[79,-39],[35,-74],[56,-4],[265,77],[69,51],[116,4],[127,-143],[243,63],[10,43],[85,63],[9,71],[177,162],[93,59],[68,-59],[72,83],[-25,195],[-21,46],[65,116],[139,131],[36,16],[173,11],[74,-9],[149,10],[97,-51],[57,-79],[106,-48],[77,-16],[146,-95],[7,-37],[144,-30],[69,-96],[113,-3],[34,28],[204,-35],[178,-19],[78,-60],[122,-65],[108,-4],[25,-24],[-187,-210],[40,-58],[124,-17],[154,-57],[57,-53],[65,-10],[121,-55],[9,-24],[-60,-78],[104,-30],[133,-97],[128,-18],[92,-54],[109,-109],[55,-31],[81,-7],[144,40],[80,47],[61,67],[158,52],[128,76],[169,62],[128,-6],[107,58],[202,-28],[175,-114],[141,-30],[91,-5],[16,111],[-28,72],[-73,35],[-70,80],[-14,133],[20,165],[-56,203],[-52,82],[-152,162],[-79,125],[-86,92],[-64,-5],[-44,41],[39,64],[51,16],[97,161],[67,31],[49,57],[42,148],[4,100],[74,25],[36,110],[40,45],[-43,106],[62,77],[35,105],[55,36],[-25,68],[26,119],[-177,113],[54,73],[-64,22],[-94,92],[-112,21],[-213,16],[-68,46],[-185,24],[-170,63],[-44,-46],[-55,43],[-163,37],[-55,119],[-124,58],[3,63],[-74,96],[36,73],[-23,32],[-17,153],[150,51],[37,73],[-17,78],[103,1],[58,56],[185,-9],[98,30],[120,-32],[140,-21],[24,-62],[108,-43],[127,-117],[60,-37],[139,13],[-27,-69],[124,-11],[99,33],[90,-63],[102,9],[77,-28],[108,-102],[140,17],[165,-20],[56,46],[7,119],[-42,72],[83,17],[36,110],[-73,54],[20,59],[-5,93],[91,16],[4,66],[107,13],[102,33],[2,34],[120,63],[49,-33],[16,-110],[-27,-122],[101,-13],[59,-94],[86,-36],[30,-80],[-13,-65],[33,-87],[60,-36],[175,39],[55,107],[85,49],[124,183],[7,125],[22,65],[104,-26],[112,-71],[39,80],[91,50],[131,4],[59,-23],[137,-16],[109,31],[106,-4],[185,-37],[22,119],[73,96],[23,105],[111,44],[9,33],[-67,82],[7,52],[61,90],[55,-23],[87,47],[-45,27],[59,89],[57,39],[-5,61],[-87,74],[80,84],[122,48],[13,68],[51,45],[-25,131],[115,0],[75,-43],[196,-21],[133,43],[64,75],[93,139],[80,-4],[148,48],[58,-14],[-10,-77],[215,2],[131,-26],[34,96],[97,24],[83,-4],[194,-36],[51,27],[70,-8],[40,-70],[182,63],[-5,173],[-41,56],[286,23],[46,-43],[68,-8],[62,-151],[76,48],[165,31],[81,-62],[50,7],[71,75],[68,6],[27,53],[115,-86],[130,-36],[100,-60],[120,77],[64,18],[168,-62],[71,24],[157,-16],[122,58],[199,-36],[55,61],[17,106],[-34,56],[137,173],[55,29],[113,-47],[154,-42],[-101,-40],[-32,-53],[21,-92],[38,-29],[91,29],[47,-26],[218,78],[80,-17],[61,67],[229,25],[226,-128],[10,-48],[62,-3],[90,-51],[53,-58],[71,-26],[175,-9],[34,59],[-56,67],[173,12],[100,-37],[67,51],[119,42],[78,-28],[116,222],[-116,105],[28,78],[-49,36],[49,101],[144,-69],[17,-55],[91,8],[81,59],[192,9],[113,-95],[122,-10],[181,139],[111,-14],[94,-71],[63,-7],[123,40],[33,-151]],[[68204,66869],[46,-69],[-73,-39],[-198,78],[-93,24],[22,-110],[-71,-75],[54,-58],[100,-13],[83,-33],[104,-8],[162,-64],[-18,-117],[110,-118],[-117,-35],[-50,-56],[40,-60],[103,32],[54,-170],[225,3],[62,-43],[105,17],[111,-38],[81,-68],[-117,-78],[-57,-70],[24,-116],[-59,-99],[-72,-176],[-79,-151],[-43,-54],[-186,-155],[-107,-73],[-76,-73],[-222,-167],[-118,-60],[-40,9],[-46,81],[-56,41],[-103,-19],[-289,-188],[-133,-141],[3,-27],[125,-34],[134,104],[167,13],[204,-31],[125,-4],[163,-28],[28,-59],[-114,8],[-78,-49],[-29,-74],[80,-22],[35,-63],[194,14],[39,31],[0,69],[53,92],[110,49],[192,-90],[72,18],[-110,96],[36,48],[124,2],[111,-59],[106,-140],[105,-234],[17,-158],[-5,-110],[89,-195],[-62,-47],[-180,98],[-161,23],[-128,-28],[13,-131],[34,-93],[-91,-136],[-6,-134],[112,20],[-75,85],[64,32],[156,-70],[94,41],[146,-32],[14,-45],[62,-31],[59,-152],[233,-196],[-72,-70],[-187,51],[-45,-15],[-100,-131],[-134,-81],[-84,22],[-158,-13],[-125,-64],[29,-72],[168,-120],[155,-148],[98,-106],[48,-79],[35,-125],[-11,-86],[-82,-54],[-164,11],[-489,76],[-236,24],[-153,-1],[-196,-26],[-84,-26],[-76,-79],[-169,-282],[-57,-119],[-4,-140],[58,0],[45,45],[145,21],[205,51],[155,58],[79,13],[146,-3],[13,-111],[-34,-77],[-68,-72],[-113,-77],[-275,-124]],[[40701,22744],[-244,-38],[-57,-35],[-13,-51],[66,-142],[102,-254],[70,-249],[12,-131],[-15,-249],[-48,-158],[-24,-167],[33,-207],[61,-182],[60,-347],[6,-130],[0,-332],[-20,-338],[-21,-50],[-418,-44],[-201,-4],[-316,19],[-439,47],[-267,70],[-196,78],[-243,186],[-298,167],[-166,82],[-376,138],[-240,113],[-149,132],[-127,-167],[-137,-246],[-117,-180],[-192,-360],[-238,-324],[-158,-140],[-254,-162],[-243,-110],[-173,-59],[-193,-52],[-183,-22],[-193,-7],[-230,73],[-188,91],[-185,109],[-17,-187],[-81,-224],[-82,-140],[-17,-117],[58,-122],[133,-155],[76,-73],[154,-176],[101,-164],[-445,11],[-1605,-15],[-714,260],[-232,218],[-284,-163],[-333,-92],[-745,-73],[-384,0],[-385,-19],[-410,-3],[-384,14],[-256,-20],[-283,71],[-180,156],[-28,11],[-116,-197],[-663,-197],[-497,-120],[-830,11],[-643,27],[-498,-47],[-268,-135],[-560,27],[-209,209],[-476,437],[-251,212],[-366,351],[-419,470],[-122,168],[-326,248],[-98,131],[-23,109],[30,159],[53,109],[112,185],[97,203],[31,210],[18,242],[-6,118],[-59,102],[-277,226],[-100,112],[-18,54],[11,232],[63,139],[25,92],[44,26],[165,49],[328,46],[191,-23],[199,9],[39,17],[83,196],[97,277],[2,38],[-43,177],[-12,146],[4,123],[37,258],[62,31],[-44,190],[-71,93],[-301,259],[-77,29],[-62,131],[-72,41],[-125,159],[-163,459],[-33,165],[74,184],[101,109],[158,123],[213,58],[223,158],[122,73],[164,62],[156,98],[41,86],[-41,92],[-114,34],[-128,-69],[-132,-149],[-98,-11],[-59,40],[-126,252],[-52,43],[-25,77],[30,78],[50,30],[111,130],[32,76],[-28,115],[-137,117],[-399,285],[-127,140],[-67,119],[-13,221],[-41,134],[-57,29],[-80,-18],[-169,-82],[-136,0],[-20,56],[129,103],[36,78],[-54,41],[-149,56],[-293,154],[-46,69],[18,88],[50,48],[129,29],[128,-2],[209,-59],[99,22],[-7,47],[-203,163],[-83,103],[-248,166],[-161,-33],[-97,20],[-41,73],[18,131],[65,201],[-6,56],[-48,81],[54,89],[-10,75],[-89,69],[-40,55],[24,74],[132,113],[41,74],[-101,93],[-193,99],[-134,104],[-12,43],[60,47],[152,54],[130,118],[57,31],[195,59],[12,61],[-210,164],[-11,84],[108,138],[45,195],[-62,96],[-112,51],[-138,109],[-138,224],[-46,180],[5,92],[-58,270],[-48,117],[-126,204],[-68,57],[-153,21],[-116,44],[-196,23],[-114,38],[-121,23],[-88,34],[-70,51],[6,42],[61,20],[113,-8],[85,-28],[182,-15],[93,24],[-14,54],[-94,181],[-15,91],[15,44],[77,89],[139,77],[113,81],[94,84],[-45,100],[-261,39],[-122,44],[-111,103],[-133,276],[-5,62],[56,71],[43,-18],[68,35],[-38,51],[79,37],[105,3],[58,47],[60,172],[0,81],[139,134],[139,-8],[12,165],[-75,66],[-66,85],[-84,40],[-46,-19],[-436,206],[-59,159],[-143,52],[-64,88],[11,137],[77,81],[18,56],[-82,38],[-70,-16],[-61,67],[131,184],[47,25],[139,-15],[-26,166],[102,9],[8,46],[122,-23],[16,141],[115,3],[78,39],[95,74],[173,-19],[23,18],[-4,105],[24,69],[-90,2],[5,64],[107,63],[43,71],[9,133],[49,99],[43,165],[-116,135],[-93,61],[15,50],[-33,49],[-66,30],[-12,61],[-81,145],[-90,64],[-64,-13],[-59,-84],[-130,-4],[-100,-30],[-84,49],[-27,72],[-72,-12],[-40,-36],[-77,51],[-101,-7],[-45,134],[-53,20],[48,75],[-195,82],[54,104],[-17,47],[-102,81],[46,30],[132,3],[81,38],[21,35],[-44,48],[-176,57],[-115,21],[-73,48],[-47,83],[95,42],[27,39],[7,132],[28,75],[-48,16],[-265,25],[-89,-88],[-40,-6],[-88,52],[-70,-27],[-117,-113],[-33,4],[-61,160],[-24,107],[18,100],[35,79],[50,31],[175,60],[56,44],[-76,54],[-50,73],[-20,77],[25,141],[-140,64],[-127,1],[-72,36],[-76,74],[23,34],[117,-48],[134,-25],[207,-6],[166,-53],[91,46],[4,57],[-140,28],[-27,109],[164,143],[-1,84],[78,111],[-190,107],[-17,42],[18,124],[-20,40],[-17,142],[-101,36],[-29,94],[-50,64],[22,138],[84,4],[19,52],[76,13],[-21,96],[-83,26],[-9,42],[125,43],[34,30],[132,27],[9,79],[174,-51],[78,52],[108,28],[36,77],[85,74],[3,51],[94,48],[0,34],[161,-2],[46,93],[-26,37],[32,69],[59,52],[163,-23],[33,185],[-85,146],[111,-26],[-11,93],[50,79],[53,9],[35,67],[99,-1],[43,62],[97,28],[97,-4],[45,22],[15,95],[120,62],[60,13],[186,-32],[63,-59],[63,66],[85,172],[55,23],[-43,74],[-100,15],[-23,40],[97,66],[73,-10],[97,-43],[19,51],[-95,16],[-70,35],[-15,42],[-184,52],[-93,-30],[-126,-60],[-49,-67],[-175,-58],[-79,-5],[-111,-70],[-109,-7],[-156,54],[-102,47],[3,58],[-90,23],[-87,-19],[-75,-58],[-84,40],[55,123],[-30,20],[-4,77],[-67,92],[-116,40],[-79,-45],[-334,-34],[-23,-49],[-184,60],[-50,29],[-279,-5],[-130,44],[-93,-47],[-40,-46],[-98,6],[-6,39],[-96,61],[-62,107],[-128,-106],[-117,-64],[-57,19],[19,82],[85,97],[-309,118],[-25,63],[-57,-24],[13,-114],[-92,-155],[13,-109],[49,-51],[-5,-68],[56,-54],[-159,-41],[-245,18],[-50,-23],[-50,59],[-84,12],[-112,-25],[-23,40],[-68,19],[-10,102],[43,14],[13,76],[-65,86],[-41,3],[-94,66],[-156,-11],[-27,-55],[-141,-25],[-94,55],[-360,95],[-121,60],[-139,19],[53,168],[52,88],[-23,63],[-93,1],[-88,27],[-59,50],[11,97],[-56,92],[-137,48],[-93,-18],[-27,25],[-14,154],[218,136],[39,35],[57,-47],[-85,-31],[-27,-43],[48,-30],[115,37],[113,-34],[-25,-90],[58,-14],[88,21],[48,50],[-9,159],[-23,113],[91,25],[35,-31],[-57,-71],[44,-71],[66,-43],[147,-31],[83,31],[29,144],[66,110],[-123,97],[-208,-14],[34,165],[73,117],[-29,35],[-88,8],[-27,71],[55,33],[197,-71],[54,30],[-58,51],[81,52],[11,82],[56,21],[133,-46],[101,33],[79,72],[-7,56],[-115,149],[59,83],[-112,80],[-75,9],[15,102],[-73,25],[-8,62],[36,33],[136,36],[73,58],[-65,85],[-81,33],[44,123],[77,21],[27,42],[-28,51],[54,31],[-12,85],[67,190],[144,-8],[60,-59],[115,-29],[58,-34],[52,68],[162,5],[-80,50],[36,47],[-26,147],[24,53],[-53,43],[-18,71],[90,94],[39,72],[143,39],[-13,50],[-57,50],[64,71],[-32,54],[36,48],[-123,61],[-83,-8],[-48,-60],[-93,-2],[-12,69],[-240,-60],[-39,-19],[-31,-156],[88,-46],[41,-80],[-83,-5],[-72,27],[-125,137],[-88,-24],[-9,-58],[82,-59],[6,-45],[-126,-1],[-161,64],[-61,-14],[-130,147],[-152,93],[-34,132],[-147,139],[-104,-18],[-51,-46],[-85,9],[-138,125],[-130,-27],[-89,32],[-9,141],[-83,-17],[8,97],[-123,33],[-4,94],[-59,58],[-177,102],[-172,-24],[-149,44],[-4,65],[-123,57],[-9,52],[32,50],[-54,87],[-42,143],[-45,59],[52,55],[-110,71],[-37,63],[-105,-17],[9,54],[-27,64],[66,28],[47,66],[4,65],[-68,51],[-47,-2],[-30,-55],[-77,36],[-243,-73],[-82,-49],[-83,23],[-103,-49],[-87,1],[46,69],[-141,50],[-72,-29],[-10,-64],[-88,23],[-274,24],[27,79],[75,67],[80,37],[101,19],[-21,176],[41,68],[-23,42],[9,112],[-61,8],[-122,-34],[-207,-10],[-85,-40],[-194,16],[28,134],[-117,69],[113,142],[66,-12],[88,70],[-11,78],[84,20],[-30,107],[48,44],[-42,144],[-102,18],[19,65],[-28,211],[-54,149],[66,53],[-11,72],[35,61],[16,89],[95,12],[-11,66],[-39,16],[5,92],[51,2],[-45,134],[42,33],[72,123],[51,13],[4,113],[-41,166],[-138,-7],[-130,30],[-139,72],[19,86],[194,-48],[52,0],[105,40],[93,61],[-4,117],[45,16],[154,-1],[50,27],[-19,73],[48,29],[-135,86],[185,17],[113,63],[10,47],[-44,55],[-246,107],[-50,69],[19,188],[28,70],[64,51],[-6,35],[-65,47],[-100,-7],[-88,-71],[-61,66],[27,47],[-44,63],[146,23],[38,92],[63,44],[149,-32],[108,0],[126,-104],[58,-4],[44,60],[-9,108],[68,35],[110,25],[100,-7],[65,-34],[-33,-89],[23,-48],[134,2],[121,85],[89,-35],[108,10],[111,-52],[79,40],[128,0],[8,31],[132,-7],[-82,125],[13,54],[66,32],[191,26],[175,96],[79,180],[257,-36],[13,60],[-33,122],[32,35],[78,7],[46,62],[144,-56],[42,47],[165,7],[45,-55],[110,10],[62,-45],[50,70],[-52,130],[57,2],[-26,81],[56,14],[-16,79],[147,-49],[-68,129],[30,10],[-52,90],[4,88],[62,36],[-33,33],[-72,-1],[-94,115],[61,53],[38,119],[-24,114],[11,56],[61,37],[90,19],[117,3],[390,-58],[9,63],[-96,124],[-39,72],[32,57],[-32,68],[-139,33],[-194,-17],[-123,-69],[-37,-57],[-76,-46],[-142,18],[-11,45],[54,77],[40,157],[53,44],[-8,91],[164,196],[-10,34],[-357,95],[-26,43],[21,72],[141,-9],[111,18],[-53,41],[-99,-16],[-57,60],[68,81],[163,52],[-79,73],[-108,-26],[-51,9],[-62,57],[30,186],[81,171],[-1,153],[-86,69],[-90,8],[-96,-29],[-256,-132],[-65,0],[5,152],[-47,105],[-66,-7],[-34,45],[59,111],[91,33],[101,-37],[42,9],[392,215],[430,244],[-41,56],[-77,194],[-177,127],[-30,50],[51,385],[5,125],[23,124],[-3,139]],[[15553,60040],[27,-20],[195,-244],[46,-70],[79,7],[151,-119],[64,-85],[127,-121],[81,-173],[61,11],[118,-83],[69,-74],[-159,-117],[325,-181],[108,-41],[87,-115],[57,-31],[286,-78],[127,-20],[336,14],[167,81],[72,-38],[195,-132],[37,-113],[67,48],[97,-4],[238,61],[69,6],[6,-65],[-15,-177],[263,86],[256,70],[105,19],[-28,210],[224,56],[0,-111],[-44,-56],[85,-32],[166,46],[177,125],[197,-95],[185,-38],[538,-32],[259,-9],[284,-70],[143,-86],[71,-126],[79,-56],[78,-81],[26,-120],[63,-117],[-5,-68],[128,-295],[31,0],[59,-119],[76,-206],[23,-92],[145,-282],[148,-227],[109,-135],[34,-91],[74,-83],[124,-91],[233,-62],[136,-4],[142,-36],[-6,-147],[302,-18],[143,13],[259,-9],[198,1],[185,15],[82,-71],[9,-109],[149,19],[36,-28],[164,21],[81,46],[52,75],[69,50],[-36,133],[46,38],[-46,62],[52,146],[416,-3],[206,32],[178,12],[5,-41],[-29,-207],[56,-24],[211,68],[189,-57],[-35,-177],[-7,-223],[22,-82],[138,-92],[78,-10],[52,-144],[-10,-51],[77,-113],[54,-10],[9,-91],[51,-127],[186,-120],[381,3],[146,-43],[143,-64],[194,-37],[26,-72],[115,-117],[251,29],[248,64],[155,65],[130,82],[85,-36],[9,-86],[179,10]],[[38121,65917],[3,46],[-110,61],[-32,158],[-66,106],[-128,74],[-52,123],[-84,101],[57,167],[159,4],[228,46],[-48,144],[9,197],[25,173],[5,127],[-44,78],[129,33],[180,95],[13,84],[-55,48],[-131,15],[14,87],[-44,83],[78,60],[19,45],[-118,38],[-79,-24],[-26,71],[-74,41],[-40,82],[-74,24],[-25,117],[83,33],[153,-1],[73,22],[17,78],[54,70],[-26,58],[-140,28],[-109,41],[89,77],[27,131],[-18,83],[-52,85],[-154,99],[-284,-105],[-324,132],[-59,-55],[27,-45],[-113,-124],[-5,78],[-47,66],[-104,19],[-147,96],[-87,29],[144,130],[112,124],[235,8],[132,19],[53,49],[-100,42],[-236,13],[-153,25],[-220,79],[-245,119],[-134,83],[-153,112],[-181,158],[-53,115],[-22,108],[-204,254],[-28,52],[-41,222],[-132,165],[249,73],[41,75],[113,66],[104,10],[-60,185],[-78,3],[-88,48],[-52,147],[31,156],[78,100],[-3,69],[-43,119],[1,128],[-96,164],[-172,132],[-80,88],[7,251],[-28,115],[-58,134],[-126,228],[-70,179]],[[35108,73663],[152,63],[25,76],[-7,172],[-62,140],[0,134],[-104,17],[-83,50],[-71,107],[-49,23],[93,89],[33,64],[16,112],[100,3],[-8,126],[9,100],[-36,17],[84,330],[5,63],[270,251],[124,132],[62,83],[37,173],[120,181],[96,174],[187,195],[87,212],[47,44],[200,51],[151,9],[385,-33],[62,99],[-2,127],[47,49],[187,6],[53,17],[-21,150],[20,150],[92,99],[12,93],[-112,166],[-122,113],[-28,71],[-28,277],[-104,6],[-35,24],[-118,202],[-40,123],[-64,70],[-70,119],[-67,15],[-6,50],[240,107],[167,121],[49,13],[6,92],[53,69],[105,35],[213,6],[278,31],[121,46],[39,131],[32,221],[-55,102],[-173,36],[60,111],[-45,68],[-111,18],[-18,82],[53,17],[330,-50],[89,-23],[71,-57],[124,-55],[385,-77],[263,-65]],[[38903,79826],[-16,-112],[42,-37],[-4,-105],[-47,-99],[-16,-81],[-87,-131],[25,-133],[-13,-164],[13,-107],[42,-141],[82,-32],[76,-160],[67,-107],[90,-94],[78,-152],[-3,-115],[-81,-51],[-27,-83],[-110,-67],[124,-25],[59,-32],[112,-7],[92,-44],[101,-2],[69,-47],[139,20],[266,-39],[185,41],[41,50],[84,25],[51,92],[171,121],[173,46],[113,-12],[87,-43],[102,-8],[119,-55],[123,-5],[104,-27],[100,82],[34,-10],[49,-153],[32,-18],[112,119],[120,34],[88,-6],[83,41],[233,-119],[75,-122],[12,-145],[308,-65],[55,-2],[150,54],[170,-89],[37,8],[141,-38],[74,-103],[221,-92],[241,-24],[192,3],[79,-96],[216,-109],[86,-60],[161,-61],[235,-35],[123,-56],[84,-66],[127,-70],[182,-62],[105,32],[359,-23],[143,3],[439,-16],[142,-12],[295,-106],[110,-11],[40,-41],[136,-37],[177,-4],[156,-70],[141,6],[73,-38],[54,-56],[63,38],[159,33],[179,-25],[124,-42],[177,-12],[97,-39],[141,-6],[161,-31],[100,3],[197,-55],[146,-31],[87,-5],[121,-30],[143,65],[132,-9],[140,24],[162,-80],[63,-73],[115,-88],[169,-91],[273,-116],[132,-69],[102,-12],[246,0],[259,-37],[115,5],[181,-104],[212,-66],[196,-28],[164,-51],[172,10],[34,119],[244,29],[506,122],[56,49],[212,65],[24,60],[230,-29],[-9,87],[191,-50],[140,23],[217,-5],[62,31],[148,-23],[142,20],[53,-52],[85,16],[100,-16],[58,25],[151,4],[59,-34],[64,42],[76,7],[89,-18],[70,52],[47,-12],[175,15],[90,-31],[89,30],[37,38],[110,-73],[372,-15],[53,37],[102,-25],[50,46],[-60,50],[36,60],[118,-46],[99,15],[41,85],[122,-28],[58,60],[81,-61],[5,-145],[-20,-61],[39,-18],[-1,-93],[86,4],[75,140],[166,-87],[33,-94],[91,10],[88,-23],[18,-43],[62,-11],[88,-52],[78,90],[93,-6],[13,70],[47,31],[102,-8],[60,-61],[102,14],[63,-27],[52,-90],[151,6],[69,-23],[81,72],[-114,47],[-34,48],[102,-1],[157,-34],[51,43],[114,28],[72,-9],[72,38],[-47,49],[76,72],[149,63],[92,11],[141,66],[21,-66],[54,-47],[61,-3],[146,37],[81,-101],[125,-34],[16,-98],[63,-22],[146,-21],[4,54],[87,-4],[11,-67],[387,-27],[129,1],[53,-46],[208,-6],[88,34],[41,-30],[102,44],[153,-7],[36,49],[53,1],[113,45],[270,-21],[47,21],[92,-55],[59,-11],[334,19],[169,-8],[185,33],[136,45],[271,56],[153,1]],[[63235,75800],[-51,-70],[93,-21],[75,-94],[-120,-119],[-46,7],[-10,-81],[-170,12],[-47,-188],[78,-41],[24,-72],[55,-11],[15,-54],[-51,-26],[35,-43],[-6,-58],[-48,-40],[-110,-42],[-25,-57],[87,-80],[93,-51],[185,-133],[137,-21],[30,-53],[-60,-33],[-13,-147],[82,-60],[9,-73],[-59,-35],[-89,-11],[-95,51],[-71,-49],[-59,4],[-103,59],[-91,98],[-68,28],[-109,-48],[-95,34],[-22,-32],[-93,-27],[96,-51],[-2,-52],[42,-98],[-102,-12],[13,-97],[-39,-93],[83,-67],[-34,-28],[4,-68],[147,22],[164,-13],[115,2],[16,-42],[80,-64],[95,0],[64,-49],[-142,-33],[-91,25],[-169,-79],[-132,-9],[-9,-59],[-65,-18],[-7,-92],[49,-92],[-12,-46],[96,-82],[144,10],[-19,-67],[12,-90],[-25,-37],[-110,-52],[-12,-79],[99,-56],[-24,-113],[83,-16],[10,-52],[145,-9],[93,32],[81,-33],[53,-49],[35,-83],[104,-37],[11,-86],[-66,-122],[-118,-70],[-27,-37],[-170,10],[-104,-35],[17,-58],[82,51],[6,-191],[32,-37],[-3,-72],[-47,-49],[81,-90],[107,-37],[96,6],[21,58],[81,25],[76,-7],[104,21],[119,-45],[171,-10],[48,-51],[1,-138],[43,-133],[52,-26],[104,-9],[78,54],[96,41],[22,-62],[129,-47],[-87,-84],[61,-9],[73,45],[63,-19],[22,-69],[66,46],[-5,75],[193,159],[-33,90],[70,32],[108,12],[107,-86],[73,-30],[75,45],[183,-4],[106,-44],[65,38],[98,-36],[6,-52],[179,-128],[88,11],[141,-71],[61,-7],[37,-63],[107,-129],[-78,-31],[-40,-94],[32,-33],[105,-42],[21,-103],[57,-43],[31,-77],[214,-28],[98,-93],[-141,-14],[-89,-86],[-28,-85],[-43,-35],[38,-40],[-65,-112],[48,-47],[8,-60],[57,-76],[131,-37],[10,-30],[127,-48],[-37,-74],[78,-48],[193,74],[27,80],[120,87],[30,55],[53,6],[-69,135],[-141,78],[-5,35],[63,75],[130,74],[8,52],[57,24],[73,-43],[30,-49],[118,-1],[-25,-59],[144,-38],[29,-120],[-17,-45],[30,-73],[-9,-88],[-28,-43],[-91,-55],[-117,-93],[-7,-76],[98,6],[87,-23],[28,-52],[10,-135],[-93,-6],[29,-68],[-63,-44],[-101,-36],[1,-86],[-52,-17],[-87,39],[-178,-84],[-164,-61],[73,-14],[145,18],[69,-34],[-3,-83],[49,-19],[50,40],[67,-10],[31,-54],[-37,-89],[-77,-2],[-82,96],[-61,5],[-43,-38],[4,-80],[112,-106],[3,-53],[-186,-51],[1,-69],[146,3],[145,-16],[70,-26],[-32,-51],[107,-22],[49,87],[79,94],[155,-8],[183,-62],[162,-128],[68,-24],[133,-8],[91,-64],[23,80],[115,-15],[99,79],[78,40],[-3,81],[96,9],[83,-34],[-52,-193],[0,-109],[-19,-38],[-105,-40],[5,-42],[63,-28],[88,2],[65,-53],[85,-23],[118,18],[24,-36],[-14,-134],[34,-47],[-120,-97],[-85,-26],[-202,54],[38,-128],[146,-13],[13,-68],[-44,-128],[-143,-50],[-266,-6],[-77,-66],[-27,-194],[-54,-99],[-66,26],[-158,-47]],[[15553,60040],[101,462],[31,84],[-10,79],[-39,55],[-3,122],[-105,232],[-201,269],[-187,88],[-210,143],[-194,53],[-311,8],[-230,-24],[-258,-2],[-135,-151],[-47,-1],[-47,95],[-192,-51],[-107,-18],[-32,20],[-95,-44],[-103,170],[-157,-11],[-199,5],[-19,-68],[-140,-4],[-155,42],[-89,12],[-19,65],[0,102],[-340,39],[-83,-1],[-36,-91],[-77,-99],[-144,-340],[-55,37],[-81,129],[-214,288],[-255,366],[-18,12],[-195,-31],[-199,-2],[-74,45],[-129,107],[-75,35],[-213,25],[-454,179],[-163,95],[-206,95],[-271,78],[-100,11],[-213,-38],[-149,-75],[-466,-80],[-251,39],[-215,-20],[-255,12],[-248,41],[-202,64],[-165,78],[-94,80],[-169,100],[-117,103],[-323,188],[-200,136],[-102,147],[-154,156],[-222,105],[-118,31],[-261,23],[-192,63],[-187,42],[-227,26],[-108,2],[-154,38],[-41,-3],[-119,49],[-145,100],[-22,53],[-112,157],[-55,55],[-177,131],[-167,100],[-255,83],[-129,17],[-28,34],[-143,80],[-232,202],[-79,51],[-191,156],[-64,26],[-95,85],[-73,43],[-112,95],[-242,246],[-134,237],[-160,178],[-118,116],[-15,59],[-133,144],[-224,215],[-280,339],[-275,101],[-120,113],[-239,147],[-48,39],[90,91],[346,282],[280,241],[140,74],[113,27],[49,79],[137,87],[62,88],[69,162],[77,136],[-121,97],[170,181],[-118,46],[48,60],[-59,27],[90,66],[32,-32],[92,-27],[220,217],[194,-41],[178,5],[-22,104],[11,117],[-8,95],[131,207],[71,70],[192,109],[73,-126],[27,-77],[76,-95],[101,6],[-60,233],[16,135],[-25,98],[141,44],[43,100],[66,47],[7,105],[130,-30],[86,14],[181,-7],[-22,129],[151,41],[120,-1],[-3,35],[-173,13],[-165,149],[21,49],[78,53],[-99,50],[-67,5],[-77,55],[109,127],[66,-48],[172,16],[2,48],[-57,32],[-94,-28],[-3,74],[-139,21],[-44,124],[-89,75],[-97,44],[-90,-3],[-31,110],[-9,259],[146,5],[102,-63],[168,17],[28,68],[-6,62],[122,-3],[8,77],[74,20],[40,51],[98,-28],[26,-35],[173,123],[81,-34],[68,11],[163,68],[134,43],[237,31],[209,-13],[96,-67],[44,-76],[128,-159],[74,-60],[187,-106],[129,-104],[109,-143],[50,-163],[5,-223],[-31,-106],[-112,-169],[174,-8],[46,128],[3,74],[52,86],[104,50],[42,-9],[-34,-78],[36,-55],[88,30],[93,-25],[160,3],[72,-17],[93,-252],[87,-5],[40,80],[197,56],[33,41],[68,2],[23,-42],[-13,-75],[109,-91],[141,0],[40,61],[-15,43],[97,12],[17,46],[68,55],[0,73],[84,93],[-48,58],[-94,41],[-119,-34],[0,98],[-33,23],[-99,-13],[-80,202],[116,46],[112,-27],[30,21],[-39,129],[31,51],[112,91],[-22,90],[192,58],[124,-28],[44,72],[62,27],[-15,64],[155,-4],[14,-64],[74,-101],[146,6],[89,-62],[82,-4],[65,73],[105,-33],[45,9],[117,114],[-17,96],[-158,112],[-1,53],[61,3],[-10,65],[86,67],[84,14],[48,101],[89,-38],[38,-65],[131,21],[-26,97],[51,57],[-136,30],[11,79],[62,130],[90,18],[-16,40],[63,85],[178,17],[42,-15],[91,21],[-20,99],[83,-16],[-12,146],[113,70],[21,110],[112,15],[45,44],[-11,53],[-120,36],[-187,17],[-48,127],[0,68],[143,121],[12,75],[60,70],[126,89],[35,55],[-77,4],[-65,37],[12,184],[-58,114],[68,145],[-44,82],[-68,22],[20,71],[-39,81],[3,55],[122,12],[23,39],[108,22],[101,64],[-17,51],[60,97],[-40,56],[61,51],[-90,47],[55,101],[-53,21],[-124,104],[-35,61],[-153,49],[70,78],[-57,98],[-7,78],[16,133],[86,4],[343,-47],[124,46],[10,44],[103,129],[9,70],[89,17],[26,-27],[117,3],[87,-18],[178,-10],[33,-17],[15,-100],[221,-11],[332,-48],[229,-52],[-82,-32],[14,-104],[149,12],[39,80],[77,-13],[54,31],[64,-27],[85,-1],[94,-43],[-11,-104],[-73,-67],[52,-52],[119,-35],[53,11],[284,17],[46,83],[90,0],[109,62],[1,121],[138,-25],[221,78],[83,63],[38,69],[127,12],[252,-47],[250,70],[70,-26],[291,-34],[105,1],[49,-72],[107,6],[127,72],[4,58],[43,41],[145,6],[15,-32],[342,9],[240,-17],[64,-84],[144,1],[0,-42],[98,13],[87,-20],[44,-140],[-14,-97],[179,8],[53,-33],[105,-22],[-30,-58],[99,-13],[93,131],[31,20],[82,-41],[84,-5],[57,108],[72,-15],[24,-62],[-3,-96],[255,-56],[148,-54],[176,-34],[114,-3],[2,42],[156,21],[18,157],[76,82],[53,-5],[100,36],[83,115],[-10,49],[55,93],[121,1],[18,62],[98,11],[38,43],[95,-93],[30,-104],[109,-33],[82,40],[123,-35],[8,-90],[-19,-68],[64,-18],[90,31],[63,-68],[19,-134],[309,-11],[-2,103],[195,-45],[59,-42],[68,-7],[130,19],[40,-51],[-16,-135],[90,-33],[83,-9],[73,-32],[15,113],[114,103],[107,62],[94,-38],[-2,-26],[101,-66],[57,50],[47,-1],[27,75],[-89,26],[55,81],[-16,94],[-132,-10],[-145,86],[12,53],[51,39],[-12,42],[30,104],[69,-64],[91,-12],[119,12],[44,36],[58,-20],[146,62],[-58,43],[-3,136],[-32,72],[-144,91],[-36,36],[76,75],[-77,82],[144,152],[56,-5],[199,55],[56,37],[84,4],[21,58],[86,-6],[85,81],[76,96],[98,-13],[26,-56],[88,-19],[133,-6],[31,-71],[52,9],[-16,65]],[[21374,77398],[75,-24],[111,6],[37,-41],[62,23],[42,65],[105,5],[18,103],[78,-4],[110,-90],[62,18],[18,-61],[103,-14],[22,-36],[91,9],[30,-28],[126,2],[16,-61],[163,15],[31,45],[-36,48],[129,35],[82,-43],[31,-63],[61,-6],[78,-67],[-6,-53],[50,-44],[178,-25],[57,-105],[86,-42],[218,-9],[44,51],[180,-10],[15,85],[51,82],[62,14],[28,-88],[104,-57],[240,31],[-17,154],[263,15],[-14,-39],[59,-33],[73,9],[66,-35],[-17,-75],[98,-29],[36,-70],[131,-15],[26,-81],[81,22],[209,20],[45,108],[90,-26],[-7,-96],[73,-73],[164,15],[-6,-104],[-118,-28],[-5,-65],[-80,-23],[-30,-63],[-87,-46],[24,-86],[-11,-77],[-50,-7],[45,-72],[1,-77],[-41,-69],[-94,-31],[-61,-42],[8,-42],[241,-12],[28,-19],[-18,-93],[16,-71],[123,-13],[3,-46],[110,15],[57,-64],[47,-1],[92,-52],[67,-83],[-45,-107],[-55,-60],[146,-7],[16,-26],[138,15],[68,-108],[83,-163],[118,-76],[56,-83],[48,-2],[28,-89],[-19,-77],[42,-28],[37,-118],[65,6],[183,-19],[18,-39],[179,-47],[71,1],[37,-42],[76,-19],[69,66],[-7,92],[56,3],[52,68],[13,94],[133,47],[28,63],[69,1],[39,37],[147,-11],[6,-35],[138,2],[94,-13],[103,84],[128,-9],[87,13],[45,-42],[25,-120],[107,-42],[-56,-91],[-149,-28],[39,-31],[94,23],[46,-67],[47,0],[70,48],[82,-92],[82,-37],[20,-61],[135,-13],[-77,-112],[13,-74],[77,-92],[16,-67],[197,-12],[243,-99],[54,-75],[4,-70],[111,-52],[-21,94],[32,149],[36,72],[152,-25],[62,11],[-86,175],[215,-30],[75,86],[157,-88],[83,-30],[34,-149],[44,-3],[48,103],[188,13],[42,-72],[46,81],[117,6],[76,27],[67,-12],[5,-88],[-63,-41],[-28,-120],[97,-10],[-34,103],[106,-15],[46,-53],[67,26],[51,-42],[-51,-81],[201,20],[31,95],[101,-20],[157,29],[105,-45],[6,-86],[59,-44],[145,-12],[63,-69],[91,-1],[43,-43],[77,2],[169,-24],[64,22],[130,3],[16,-31],[84,-21],[65,31],[221,-36],[86,-30],[135,20],[143,-39],[20,45],[215,46],[258,4],[158,20],[79,71],[46,11],[196,-3],[320,-126],[197,-86],[140,-10],[7,39],[101,72]],[[21374,77398],[-11,99],[26,151],[26,240],[-9,66],[-101,-80],[-53,-22],[-179,-3],[-133,87],[-73,4],[32,68],[-183,3],[-28,-70],[-166,13],[-72,54],[-62,7],[-8,-69],[-151,-1],[-72,32],[-113,-38],[-107,-12],[-27,27],[-206,53],[5,159],[-89,-10],[-9,-35],[-171,1],[-81,78],[-84,138],[-23,15],[-25,147],[6,45],[-189,-23],[-144,14],[-65,-8],[-39,-45],[44,-72],[4,-63],[-61,-5],[-162,101],[-40,85],[-194,102],[31,25],[18,134],[-111,-15],[-28,59],[-118,-18],[-65,149],[-170,-21],[-13,30],[-97,2],[-11,61],[-51,16],[32,80],[-22,26],[32,149],[-51,35],[-5,84],[85,34],[-16,73],[-51,-3],[-19,74],[-280,-19],[-35,143],[-193,14],[84,70],[58,22],[126,-2],[83,36],[18,90],[-29,72],[101,-3],[-33,138],[-101,16],[-53,111],[98,102],[167,78],[16,79],[-82,76],[51,102],[-4,40],[-82,86],[-2,56],[-84,152],[-248,-34],[-106,30],[-40,105],[-42,56],[16,199],[-52,49],[16,78],[46,61],[-139,32],[-250,-37],[-10,-28],[-111,-27],[-6,-42],[-208,-9],[-55,40],[-131,56],[-19,52],[-158,8],[37,-170],[-29,-57],[126,-127],[111,12],[-38,-80],[-97,-95],[-153,-24],[-87,21],[-157,-28],[-31,-67],[-107,12],[79,136],[-31,43],[3,69],[-214,3],[-227,-50],[-4,-28],[-173,-14],[-123,17],[33,-69],[-19,-73],[40,-175],[-77,-23],[14,-40],[-151,-20],[-34,-77],[-97,51],[-199,27],[-138,-29],[-184,15],[-134,-23],[-61,137],[-163,-13],[-137,-51],[-6,69],[-41,131],[-33,43],[66,25],[-20,68],[-92,28],[-363,-52],[-81,117],[-93,23],[-20,53],[-104,49],[-11,81],[-135,-15],[-75,-72],[-25,-76],[-124,37],[-91,-4],[-86,20],[-253,-9],[-97,36],[-5,47],[-166,-23],[-148,44],[35,92],[-147,-50],[0,-109],[-100,-41],[-49,38],[-30,80],[15,64],[-57,18],[7,67],[58,78],[-25,82],[-86,-16],[-54,27],[-7,113],[-112,17],[-54,-109],[-43,-23],[-96,54],[27,99],[-114,51],[-122,-44],[-22,37],[-155,59],[-60,78],[18,52],[-94,9],[4,91],[104,134],[24,186],[-187,10],[-153,27],[-65,-14],[-153,6],[-111,-28],[-53,42],[-5,89],[-76,44],[-102,24],[-3,45],[-147,-25],[-129,-5],[21,58],[53,11],[3,79],[-66,141],[43,50],[5,70],[60,59],[75,29],[38,102],[-13,32],[25,146],[-45,38],[29,148],[-30,32],[8,113],[-182,25],[-42,-7],[-106,46],[-104,16],[-170,6],[-111,19],[-36,-37],[-78,27],[-144,16],[-11,19],[-138,10],[20,97],[52,85],[-78,42],[-237,-31],[-9,101],[34,49],[-134,26],[-85,42],[-166,10],[-71,55],[65,144],[34,43],[-60,51],[-137,24],[-22,42],[-165,30],[46,86],[-159,30],[-84,40],[-78,-19],[-66,90],[-69,45],[-202,42],[-61,-47],[-115,16],[6,109],[-114,27],[46,85],[-84,54],[-300,89],[-1,60],[-164,51],[-36,32],[10,77],[-149,14],[-99,-8],[-139,95],[-82,14],[-47,39],[77,24],[4,64],[40,57],[-26,207],[-27,54],[-212,94],[-24,-38],[-204,18],[-44,-100],[-59,56],[-189,-22],[-46,-71],[-42,-16],[9,-89],[-58,-10],[-68,43],[-35,-30],[-192,55],[8,-42],[-84,-17],[-52,-152],[-45,-6],[-154,38],[-10,70],[-111,61],[-16,60],[-103,-16],[-94,16],[-69,-39],[15,-45],[-35,-48],[-63,9],[-92,-119],[-150,41],[-132,-28],[-20,-93],[-78,-80],[-75,-22],[-108,6],[-26,58],[-68,45],[49,54],[1,129],[-123,52],[-232,22],[-84,-30],[-199,34],[20,107],[95,122],[-94,38],[-110,-8],[-72,22],[89,104],[-110,36],[-108,84],[145,110],[4,60],[-96,12],[-37,71],[99,16],[86,47],[70,75],[-6,43],[-72,77],[27,55],[-10,81],[-89,-8],[-43,-93],[-49,-7],[3,130],[-28,48],[-95,-25],[-66,55],[53,56],[46,93],[96,100],[-85,74],[-107,1],[-87,71],[68,22],[-61,51],[17,58],[71,32],[-14,55],[-65,58],[-42,-32],[-62,31],[111,204],[58,62],[122,75],[249,-28],[39,99],[-9,67],[117,17],[95,60],[-13,36],[-95,90],[-61,34],[15,79],[78,4],[106,46],[-75,51],[-4,73],[155,51],[4,121],[74,97],[-43,58],[19,65],[110,22],[21,38],[89,-54],[82,61],[-13,103],[-43,63],[14,58],[108,-17],[4,42],[211,42],[69,-3],[83,50],[259,-2],[125,76],[-21,75],[-82,-9],[-120,22],[-14,83],[79,39],[-5,38],[-112,70],[31,48],[64,25],[85,-13],[4,59],[-47,91],[210,84],[2,32],[-78,28],[-11,38],[45,48],[-32,33],[-200,41],[-73,62],[-77,32],[-20,-49],[-89,-22],[-34,45],[37,67],[94,40],[-134,116],[-9,36],[101,75],[-3,93],[48,41],[120,12],[39,23],[22,139],[102,68],[-78,53],[-13,64],[121,133],[-54,48],[0,105],[100,41],[27,45],[142,34],[140,72],[0,68],[65,-8],[44,-61],[67,-5],[84,32],[139,22],[28,32],[-86,48],[50,53],[71,-47],[110,-17],[27,49],[83,63],[106,-2],[5,49],[89,17],[-79,55],[108,77],[139,24],[47,69],[134,-32],[87,4],[49,-32],[107,30],[90,-33],[109,26],[246,201],[57,-17],[57,48],[49,-49],[76,20],[47,-41],[197,102],[132,-13],[63,20],[177,15],[-56,80],[72,11],[89,87],[59,-4],[143,35],[24,23],[183,15],[73,87],[-43,77],[94,35],[-27,89],[102,44],[4,34],[-116,51],[9,31],[-125,80],[-19,47],[35,40],[14,124],[-48,67],[27,56],[-1,100],[55,71],[27,74],[102,13],[51,64],[69,47],[-16,70],[131,28],[13,71],[67,21],[120,-8],[11,61],[48,6],[72,65],[94,23],[135,6],[64,30],[91,9],[266,-38],[35,93],[-16,51],[-118,-16],[-66,14],[13,61],[-83,7],[71,70],[78,34],[49,52],[132,-25],[206,9],[149,-5],[47,61],[20,86],[36,52],[-15,49],[55,27],[39,131],[127,78],[41,84],[84,19],[85,-16],[-52,-72],[41,-78],[73,-25],[14,-43],[109,17],[100,-36],[90,18],[-1,-59],[57,-10],[7,-48],[163,-25],[76,37],[-68,122],[60,26],[112,-23],[251,55],[-61,-102],[4,-79],[75,23],[113,3],[68,-22],[31,92],[84,45],[-33,65],[-89,-17],[-8,68],[95,-5],[82,129],[-48,21],[-81,-72],[-67,21],[-63,83],[53,120],[-16,49],[-57,11],[-64,100],[-84,62],[122,72],[-33,70],[-92,-61],[-71,1],[-28,66],[-114,34],[153,123],[-144,-9],[-41,23],[1,88],[79,55],[-170,45],[16,60],[71,4],[59,43],[-82,41],[-56,100],[-76,24],[1,69],[-167,40],[11,39],[112,56],[17,45],[-210,28],[-270,64],[-140,7],[-191,-4],[-136,-17],[-144,31],[-114,100],[-112,-7],[1,-43],[-160,-13],[-149,129],[-6,42],[-72,17],[7,74],[-79,1],[-37,-52],[-79,-8],[-154,-47],[-58,62],[-193,20],[-101,77],[-195,-29],[-68,-78],[39,-34],[2,-90],[61,-31],[-11,-50],[-91,-66],[-10,-108],[36,-73],[-94,-39],[-39,-77],[-57,0],[0,60],[-66,129],[-30,21],[12,81],[-35,59],[-136,7],[2,154],[-106,-8],[-97,111],[19,144],[119,120],[180,92],[91,84],[50,93],[-22,109],[21,37],[117,54],[24,93],[-40,126],[26,48],[151,124],[23,82],[80,38],[36,119],[-28,119],[9,45],[73,54],[19,63],[-36,27],[55,81],[17,99],[165,49],[57,41],[78,15],[123,-5],[39,57],[-87,28],[-102,0],[-44,44],[42,75],[159,57],[10,105],[24,37],[163,50],[87,79],[115,-45],[8,-54],[-40,-104],[78,-13],[-25,-160],[52,-156],[15,-96],[-18,-95],[66,-146],[-21,-205],[71,-85],[145,-249],[131,-86],[110,-5],[16,-74],[102,-65],[148,12],[2,48],[61,21],[23,115],[58,0],[16,-54],[289,7],[36,-32],[136,-15],[14,-38],[-52,-51],[6,-66],[154,-10],[-18,-229],[34,-52],[-19,-54],[215,23],[-10,42],[180,3],[71,-85],[162,12],[75,-93],[-81,-60],[88,-93],[38,-109],[68,-56],[-33,-73],[30,-16],[615,71],[-33,-108],[-44,-34],[85,-30],[66,-216],[63,-10],[-25,-64],[84,10],[231,-15],[140,-19],[61,-92],[86,21],[62,-24],[54,36],[-4,160],[26,150],[137,-9],[79,11],[349,-2],[49,-297],[39,-60],[24,-140],[-97,-44],[11,-56],[46,-22],[98,17],[7,-51],[92,8],[71,-41],[120,-15],[126,19],[31,-64],[-27,-86],[-61,-53],[137,-25],[127,15],[73,-98],[100,-20],[3,-29],[224,2],[136,42],[-19,-64],[73,-59],[-238,-33],[18,-33],[-134,-32],[173,-66],[46,18],[158,1],[-13,-126],[142,14],[114,46],[57,-32],[-2,-42],[-165,-14],[-127,-33],[-129,-12],[-9,-73],[96,13],[-12,-74],[39,-35],[28,-104],[45,-40],[61,-116],[83,-15],[4,-95],[-53,-86],[58,-21],[109,-97],[-10,-41],[49,-42],[103,34],[51,59],[0,86],[27,24],[262,-16],[87,90],[93,19],[-41,70],[108,-13],[265,0],[22,-82],[83,-90],[-13,-72],[152,-61],[9,-30],[-101,-187],[31,-118],[-27,-76],[61,-88],[13,-71],[50,-25],[185,24],[107,54],[154,-3],[159,64],[34,33],[200,-39],[256,-167],[116,-53],[-128,-97],[-27,-146],[-37,-53],[72,-42],[37,-104],[-66,-41],[27,-106],[42,-51],[77,0],[84,-33],[5,-84],[87,10],[53,-39],[-58,-29],[7,-83],[83,3],[64,-38],[84,6],[5,-106],[99,-29],[17,43],[215,42],[135,-46],[113,3],[123,28],[38,-26],[100,11],[-77,110],[-48,-2],[-20,92],[-75,13],[1,58],[-132,46],[7,223],[58,57],[-60,39],[5,37],[111,46],[-12,66],[94,60],[104,37],[413,29],[251,-5],[50,-11],[190,9],[180,-83],[83,-69],[82,-123],[19,-66],[104,-65],[95,-137],[103,-84],[81,-89],[4,-42],[235,-54],[131,10],[196,82],[272,21],[148,-31],[342,2],[91,-31],[60,87],[208,-15],[118,6],[14,-42],[162,-61],[114,7],[-57,73],[9,91],[58,21],[-4,43],[111,24],[46,-28],[88,70],[-50,144],[43,44],[-43,71],[57,95],[-35,51],[-80,35],[67,87],[-38,41],[-116,-22],[-17,59],[-130,2],[-32,-98],[-11,-239],[-92,20],[-2,69],[-107,55],[-174,26],[-57,43],[-90,31],[69,53],[-43,77],[121,134],[-119,50],[-122,-108],[34,-93],[56,-36],[-24,-39],[-89,-22],[-45,40],[9,76],[-134,107],[-40,-51],[-18,-78],[-63,-30],[-21,-65],[-105,-12],[-10,60],[24,58],[-96,50],[-149,0],[-7,86],[-32,82],[89,116],[92,-53],[110,-15],[8,44],[-65,55],[101,65],[49,98],[-53,40],[-216,-1],[-67,27],[-18,63],[61,88],[-11,104],[-74,-2],[-102,-41],[-84,71],[-166,-12],[-38,-23],[-71,59],[-43,-75],[60,-28],[-10,-89],[17,-74],[-63,-6],[22,-95],[-91,1],[-92,48],[-2,102],[21,54],[63,-18],[56,30],[-104,47],[-29,-37],[-132,5],[2,33],[77,61],[23,82],[163,41],[2,68],[-59,-3],[-57,80],[-61,2],[-61,-97],[-16,-59],[-106,16],[-100,-18],[-18,31],[-103,23],[-79,89],[-85,-20],[-73,40],[-119,-18],[-79,84],[56,65],[146,7],[8,64],[-160,-12],[-90,33],[156,85],[43,87],[8,75],[-22,136],[-81,2],[-70,-43],[-81,103],[139,34],[269,-38],[122,129],[-40,36],[-98,11],[-35,84],[52,35],[128,3],[24,44],[-141,3],[0,75],[44,15],[117,-21],[94,-66],[1,-36],[103,-6],[2,45],[58,16],[3,64],[111,13],[-35,68],[-2,81],[-45,9],[-16,75],[117,11],[-3,45],[89,-6],[90,17],[-53,45],[1,75],[172,-38],[20,-99],[91,6],[85,-29],[46,-60],[133,4],[-57,-75],[49,-59],[-93,-34],[-5,-40],[96,-51],[-49,-86],[65,-11],[-15,-61],[192,-37],[41,-34],[-3,-61],[106,8],[-67,52],[-3,43],[80,64],[141,-17],[-25,-54],[89,-79],[200,38],[86,-25],[15,-87],[148,-23],[40,-123],[48,-6],[-5,-65],[94,18],[-12,55],[214,0],[124,-14],[52,-46],[65,41],[67,-10],[93,32],[192,-69],[176,35],[79,-6],[-40,-61],[-112,-30],[26,-30],[110,35],[199,-16],[-85,-40],[-1,-110],[-59,-25],[-2,-70],[31,-27],[-31,-125],[-35,-30],[-154,16],[-8,-58],[63,-16],[67,32],[100,-56],[121,-8],[4,-167],[43,-39],[-9,-127],[48,-24],[-79,-83],[-31,-58],[-46,-3],[-157,-150],[93,20],[199,108],[-11,-78],[94,-19],[52,57],[140,-52],[17,-76],[77,30],[207,29],[46,-52],[149,35],[15,-97],[-26,-63],[30,-60],[-114,-46],[0,-120],[-102,-36],[-10,-81],[-53,-48],[-63,-14],[-73,85],[-9,86],[-51,22],[13,85],[-113,17],[-20,139],[-54,14],[-69,-40],[9,-60],[-69,-60],[162,-55],[-64,-52],[-11,-59],[68,-60],[-90,-36],[-16,-86],[83,-33],[-16,-108],[81,13],[69,-48],[274,-152],[-97,-191],[143,-62],[86,0],[23,63],[109,-60],[-92,-13],[-50,-73],[28,-67],[86,-47],[84,15],[20,-93],[-30,-42],[56,-139],[-8,-93],[136,-118],[-21,-60],[-63,-23],[-11,-45],[-71,-14],[-34,-84],[-6,-87],[-42,-16],[-10,-89],[35,-112],[72,-7],[-30,-65],[24,-35],[177,5],[73,-96],[93,-20],[-29,-57],[-142,-6],[4,-92],[53,-34],[-3,-53],[67,-113],[117,-91],[44,13],[41,-85],[38,7],[174,-25],[159,-47],[162,-10],[83,-59],[71,58],[148,26],[200,-64],[60,25],[90,-36],[27,21],[150,-25],[26,-66],[108,-102],[41,12],[104,-33],[-19,-70],[46,-58],[90,7],[128,-54],[-9,-80],[39,-60],[53,15],[211,-12],[8,-89],[-99,-46],[-7,-31],[-82,-46],[-40,-75],[19,-56],[-36,-78],[100,-80],[41,8],[214,-48],[103,24],[62,83],[76,-38],[-23,-45],[4,-109],[-55,-105],[181,-2],[132,-44],[72,13],[21,40],[213,-59],[45,-51],[140,-62],[77,8],[111,-46],[127,-151],[75,4],[70,-64],[15,-96],[223,-120],[109,2],[63,-39],[316,41],[127,-22],[104,22],[89,-5],[78,-35],[91,65],[-67,80],[-7,94],[262,84],[102,226],[78,-14],[158,26],[136,49],[108,-57],[53,-78],[22,-94],[-135,-204],[18,-109],[126,-43],[240,-24],[76,-23],[262,-144],[244,-11],[145,-16],[48,-101],[69,48],[-37,88],[75,17],[106,100],[131,-53],[183,-26],[69,14],[71,70],[148,28],[20,-53],[198,-14],[86,25],[117,0],[52,-54],[134,-40],[-9,-39],[-104,-17],[-119,-59],[16,-44],[-46,-85],[130,-37],[-80,-109],[-14,-46],[44,-58],[213,-71],[170,-13],[-2,64],[112,28],[19,124],[100,12],[-23,-162],[93,-29],[132,28],[15,58],[-35,78],[106,34],[79,-13],[9,117],[-45,52],[52,54],[-13,88],[-69,61],[-71,20],[-32,66],[49,70],[-29,79],[-26,162],[144,36],[-39,48],[11,48],[58,25],[17,60],[60,4],[60,-62],[95,40],[2,54],[-76,9],[-33,62],[130,-7],[146,81],[131,33],[47,76],[-31,38],[-89,-12],[-61,70],[79,42],[20,-52],[139,-65],[41,-55],[81,4],[109,57],[30,64],[66,21],[145,-29],[136,38],[77,-15],[34,68],[-67,49],[-131,64],[-69,18],[-84,125],[67,113],[45,37],[-109,45],[-32,59],[91,25],[-78,51],[-58,90],[-128,3],[-20,-90],[-54,-27],[-69,60],[-78,-42],[88,-99],[-63,-19],[-43,40],[-78,-47],[29,-63],[-58,-17],[-47,78],[-167,64],[-71,58],[61,48],[62,-16],[13,64],[-64,78],[64,24],[61,-30],[46,-72],[114,25],[76,-24],[83,19],[213,105],[35,49],[-48,171],[-80,3],[-48,-117],[-99,-9],[-64,69],[-75,30],[-50,-111],[-53,-40],[-88,85],[116,9],[-16,70],[-171,89],[-42,119],[43,100],[9,120],[-62,57],[-83,21],[68,43],[95,13],[44,-56],[60,-20],[123,32],[4,48],[66,11],[11,68],[109,8],[-21,49],[-93,-37],[-46,20],[-7,93],[-71,84],[98,-19],[241,19],[39,-46],[147,55],[96,-13],[12,-41],[-115,-48],[103,-22],[47,-85],[160,-44],[69,2],[8,90],[98,3],[7,57],[84,47],[-61,40],[-8,43],[-129,-27],[-115,44],[-203,-44],[-144,60],[-3,95],[42,104],[68,6],[62,-36],[-18,-39],[67,-73],[140,-36],[58,7],[14,72],[40,13],[-73,83],[-69,9],[-85,65],[-9,153],[-130,21],[2,41],[63,68],[-47,40],[33,56],[-17,103],[76,10],[37,-37],[155,-37],[58,-53],[120,-21],[15,-23],[182,8],[13,18],[149,-10],[-10,54],[22,97],[92,67],[50,74],[48,-166],[68,3],[93,-86],[-75,-50],[-68,18],[-69,48],[-18,-72],[37,-86],[110,-96],[-136,36],[-62,-26],[-56,-79],[24,-80],[139,-31],[24,-98],[93,-127],[82,-82],[106,-60],[132,-25],[-13,-37],[-105,-38],[-239,13],[-75,-83],[83,-57],[176,-30],[96,-32],[62,-103],[162,43],[51,89],[-9,57],[38,77],[96,5],[51,-31],[19,-164],[234,28],[65,-10],[214,27],[109,-39],[96,-115],[28,-65],[14,-116],[174,-24],[83,-102],[-22,-101],[-114,-123],[-99,-64],[41,-96],[146,33],[99,-45],[38,-47],[115,23],[32,36],[150,-48],[24,-117],[-51,-62],[-46,-160],[94,-4],[56,67],[59,26],[69,-11],[20,-84],[-93,-77],[120,-63],[-37,-38],[54,-46],[-39,-89],[42,-19],[19,-64],[-114,-27],[-149,-5],[-33,-94],[84,-39],[-91,-51],[-96,-25],[-124,-92],[57,-70],[95,97],[176,-11],[-38,-73],[83,-21],[25,43],[-12,75],[51,16],[149,-40],[3,-44],[-61,-44],[-25,-61],[-115,-74],[12,-66],[-118,-22],[53,-58],[89,45],[8,44],[78,36],[85,115],[53,176],[44,25],[102,-61],[38,-116],[39,-64],[86,-70],[-81,-79],[17,-62],[101,-85],[18,-66],[-68,-84],[52,-62],[-13,-52],[-86,-29],[29,-64],[93,-83],[127,-36],[183,-20],[16,40],[-63,66],[-47,169],[-38,79],[25,77],[-22,24],[90,54],[87,-60],[105,-43],[92,-110],[-12,-64],[80,-114],[97,-17],[127,-65],[105,-32],[35,-64],[109,-40],[-35,-53],[-176,-40],[-109,-40],[-68,-3],[-160,46],[-126,-13],[-55,-68],[83,-42],[87,-120],[-55,-35],[100,-81],[-165,19],[-204,69],[-78,-8],[-46,-40],[-21,-97],[225,-15],[146,-19],[-64,-50],[109,-16],[86,45],[288,10],[335,55],[197,-21],[-93,-127],[-93,-191],[10,-34],[-199,-166],[-183,-118],[-93,-127],[-161,-110],[-8,-71],[-167,-142],[-95,-100],[-84,-55],[61,-173],[-25,-53],[19,-271],[-167,-125],[-10,-39],[-197,-215],[-9,-45],[159,-61],[32,1],[82,-160],[-9,-80],[47,-88],[55,-62],[-8,-69],[107,-126],[18,-46],[38,-227],[-20,-49],[-98,-113],[-185,-155],[3,-135],[83,-127],[64,-121],[87,-41],[243,7],[61,-87],[1,-41],[-71,-142],[-43,-51],[114,-157],[137,-98],[63,-184],[65,-85],[140,-27],[65,-140],[40,-132],[108,-221],[15,-84],[9,-178],[-26,-60],[-40,-178],[-89,-151],[-39,-88],[50,-116],[-74,-134],[14,-65],[-59,-21],[-61,-110],[-24,-135],[8,-83],[-67,-83],[-96,-16],[-162,-51],[187,-347],[-44,-189],[-90,-43],[19,-94],[-111,-66],[-13,-75],[27,-48],[-24,-202],[55,-19],[5,-107],[-155,-118],[-179,-218],[-77,-125],[-26,-98],[-42,-73],[-37,-137],[-43,-80]],[[19674,94989],[200,38],[72,-22],[5,-179],[-100,-24],[14,-120],[239,79],[99,-13],[52,-129],[-28,-75],[180,12],[36,-58],[-50,-29],[-35,-74],[48,-10],[124,38],[22,-37],[133,20],[52,40],[120,34],[27,-77],[-27,-27],[-41,-188],[-145,18],[-80,-102],[-96,-14],[-101,6],[-212,-33],[-78,44],[-100,137],[-147,86],[-92,24],[-75,-27],[-57,24],[-34,133],[67,30],[24,83],[-47,56],[-52,9],[-30,98],[-73,137],[65,49],[-58,46],[49,55],[83,-18],[47,-40]],[[63235,75800],[95,9],[124,54],[67,-15],[176,12],[237,57],[47,-12],[110,48],[131,-3],[18,30],[115,-3],[106,21],[8,59],[132,-37],[103,-4],[147,20],[185,43],[111,16],[112,38],[174,-18],[137,14],[31,47],[-30,55],[75,6],[244,-39],[149,11],[328,-29],[260,-15],[242,-4],[169,32],[226,18],[156,-9],[96,20],[49,-19],[127,6],[231,30],[85,22],[270,32],[298,-23],[298,-10],[119,-47],[46,33],[83,-40],[207,10],[72,-34],[18,55],[175,23],[21,71],[155,27],[40,-16],[164,-123],[257,-58],[65,-30],[-72,-40],[-8,-58],[95,-44],[137,6],[132,-25],[109,26],[176,-10],[132,-56],[51,-60],[86,18],[62,-11],[73,-54],[207,13],[85,24],[47,-67],[154,90],[83,0],[24,-56],[82,-49],[112,-41],[145,4],[57,23],[101,-42],[224,-35],[148,16],[89,-37],[78,108],[144,-120],[91,-103],[162,-2],[51,-22],[119,-95],[194,-3],[34,53],[108,-42],[212,25],[66,-14],[-46,-106],[21,-110],[-85,-38],[133,-26],[180,5],[75,45],[143,-23],[60,46],[79,-44],[100,0],[42,133],[146,60],[161,8],[86,-37],[127,-17],[158,15],[440,60],[72,50],[-6,54],[117,85],[86,-20],[116,63],[-6,49],[117,101],[248,0],[45,34],[310,-2],[107,48],[91,-35],[9,-72],[-179,-21],[-56,-22],[-46,-87],[30,-59],[-25,-69],[-63,-58],[55,-154],[31,-34],[78,76],[86,24],[47,-78],[41,60],[119,-25],[47,-106],[-6,-147],[93,-45],[226,-43],[94,8],[71,60],[135,6],[17,59],[118,17],[48,-81],[98,22],[-19,115],[119,42],[138,4],[97,-48],[154,39],[87,-6],[53,61],[10,78],[67,3],[122,123],[-55,36],[42,52],[59,-25],[48,29],[160,-32],[27,-67],[337,-39],[63,-24],[20,-86],[138,-29],[24,69],[-6,78],[103,85],[16,78],[-99,118],[-1,37],[75,68],[139,46],[6,-54],[84,-91],[99,-28],[63,17],[193,-70],[125,46],[336,40],[173,-5],[9,57],[254,-3],[131,89],[203,19],[220,-26],[102,-42],[171,-21],[117,2],[70,43],[131,-14],[95,38],[122,-57],[84,66],[109,-17],[109,5],[76,61],[182,-10],[124,27],[177,3],[111,-19],[149,-5],[67,-21],[244,-22],[185,10],[324,-39],[138,-53],[141,6],[68,31],[148,115],[170,69],[294,24],[51,-78],[142,-56],[53,50],[123,24],[80,-30],[68,68],[193,13],[184,-7],[91,9],[88,-26],[170,-14],[99,-60],[58,26],[222,-84],[75,0],[143,-41],[58,15],[22,-61],[236,-90],[81,-48],[199,-42],[72,-81],[133,-34],[-75,-27],[-44,-67],[5,-87],[61,-57],[120,-71],[102,-7],[44,38],[63,2],[7,-65],[127,-14],[46,-57],[-18,-51],[84,-15],[116,39],[48,-2],[157,-61],[14,-42],[74,-58],[118,192],[-22,51],[35,59],[78,-34],[94,-131],[248,-60],[226,-90],[-23,-29],[-299,75],[-87,-2],[-89,-194],[153,-26],[82,34],[173,-34],[155,-45],[14,-87],[90,-71],[87,46],[46,-40],[125,-26],[322,-121],[133,-36],[129,-6],[252,-89],[116,-21],[47,10],[309,-99],[118,6],[107,-38],[43,46],[124,-29],[-2,63],[70,65],[111,-4],[103,20],[131,-52],[217,-42],[-7,-115],[16,-49],[-30,-68],[-106,-76],[-63,-25],[1,-55],[159,-35],[67,27],[88,-4],[35,-34],[102,-6],[39,52],[91,-38],[37,-41],[-23,-43],[187,4],[66,-56],[81,-6],[36,30],[157,-17],[142,-116],[125,-6],[187,-58],[61,20],[103,-41],[55,35],[45,-33],[2,-135],[-39,-10],[20,-104],[-39,-113],[-133,-228],[105,-32],[22,-42],[-32,-200],[-28,-97],[20,-53],[75,-15],[285,18],[178,-11],[88,8],[140,62],[108,-11],[136,-92],[22,-31],[-40,-68],[-74,-32],[-180,-30],[-77,-32],[-58,-68],[-20,-72],[26,-83],[71,-3],[247,54],[264,8],[189,85],[61,-53],[-52,-99],[-34,-110],[31,-106],[51,-83],[139,-64],[10,-27],[-37,-151],[78,-51],[-8,-40],[-60,-52],[-55,-95],[23,-120],[-10,-61],[26,-78],[-134,-64],[-134,20],[-108,-77],[-77,11],[-150,55],[-361,8],[-74,-7],[-63,-98],[-78,-158],[-126,-20],[-122,-46],[-198,77],[-144,25],[-94,0],[-47,-34],[-28,-104],[-70,-17],[-280,34],[-77,129],[-113,60],[-19,110],[-48,48],[-237,-9],[-55,94],[-133,20],[-112,166],[-62,-16],[-52,-109],[-82,-59],[-63,30],[-191,149],[-24,93],[-98,34],[-137,-32],[-41,40],[-152,60],[-11,133],[-93,85],[-153,22],[-194,-51],[-50,-35],[-17,-53],[-202,-27],[-156,38],[-145,-9],[-152,33],[-106,-1],[-128,-60],[-93,-15],[-82,-59],[72,-26],[-3,-99],[147,-66],[97,-69],[4,-94],[-47,-139],[7,-65],[-147,22],[-60,-73],[6,-81],[82,-19],[4,-81],[36,-49],[-7,-75],[28,-85],[218,-29],[-44,-42],[55,-66],[155,-35],[175,-3],[96,-38],[-5,-102],[69,-97],[-28,-132],[17,-65],[-48,-69],[127,-44],[1,-60],[46,-49],[149,-43],[-46,-177],[-68,-59],[-6,-145],[135,-55],[-42,-79],[-152,-131],[-2,-56],[55,-52],[283,-83],[-43,-33],[-84,-141],[-212,-196],[-93,-103],[-33,-64],[-177,-217],[-75,-10],[-55,-62],[-14,-112],[-85,-24],[9,-64],[42,-12],[-54,-113],[-91,-111],[-102,-76],[71,-103],[-37,-72],[25,-29],[-15,-91],[-91,-163],[-15,-63],[24,-109],[-59,-74],[-68,-146],[-76,-255],[-27,-44],[-9,-117],[30,-69],[-46,-97],[-39,-596],[-31,-541],[-148,-9],[-65,35],[-197,31],[-175,53],[-64,58],[-80,35],[-105,72],[-184,82],[-147,13],[0,38],[-152,109],[-165,-69],[-99,-143],[-5,-53],[41,-35],[-81,-43],[112,-80],[-143,-75],[-8,-188],[42,-96],[-13,-77],[60,-42],[-31,-84],[77,-93],[67,-162],[-30,-38],[48,-41],[-19,-35],[64,-66],[-12,-83],[81,-151],[-24,-31],[26,-68],[-79,-93],[-84,54],[-72,7],[-54,41],[-141,-67],[-196,62],[-53,-47],[5,-51],[-56,-46],[-8,-83],[39,-71],[-73,-19],[-86,-82],[-11,-58],[-99,-47],[-69,-82],[68,-95],[-41,-37],[-113,3],[-99,-30],[-156,37],[-54,-25],[19,-46],[-102,-78],[-127,-25],[-82,12],[-46,41],[-293,-2],[-462,9],[-134,30],[-70,-10],[-87,53],[-46,-19],[-104,16],[-86,56],[-28,44],[-110,-14],[-197,-56],[-102,31],[-1,69],[-101,68],[-66,22],[-32,-82],[-146,-76],[-8,-82],[-66,-34],[-48,59],[-148,27],[-70,41],[-95,-42],[81,-44],[-21,-80],[40,-57],[80,25],[46,-48],[34,-95],[-2,-59],[-40,-43],[66,-38],[48,-64],[182,-132],[22,-45],[73,-34],[39,-109],[-66,-4],[25,-86],[-8,-70],[-113,24],[-117,-18],[-76,37],[-4,43],[-104,22],[-84,98],[-28,122],[-127,84],[-33,45],[-166,94],[-137,-92],[-82,-2],[-70,-37],[-48,-95],[-59,0],[-215,-57],[-50,-49],[-117,3],[66,-152],[67,-216],[69,-131],[232,-621],[-62,-201],[-148,-382],[-84,-245],[-179,-450],[-91,-287],[-42,-99],[61,-15],[-55,-59],[34,-25],[-10,-112],[-77,-144],[-76,-35],[-8,-89],[-77,-33],[-110,38],[-126,-43],[-42,34],[-104,4],[-13,66],[-111,58],[10,81],[-44,52],[-10,109],[-37,23],[-8,105],[39,10],[-56,83],[-145,37],[-117,101],[-79,-13],[-135,9],[-121,119],[40,49],[-46,110],[94,68],[64,98],[61,50],[-82,65],[-110,27],[63,56],[-108,79],[-118,9],[-12,-74],[21,-36],[-61,-32],[-77,10],[-72,-82],[-70,-15],[-44,-41],[-139,2],[-84,37],[-55,89],[-72,39],[-178,-14],[-136,11],[-364,151],[-242,115],[-399,173],[11,-84],[88,-425],[16,-151],[83,-481],[1,-99],[56,-290],[29,-206],[-230,-16],[-97,20],[-136,6],[-26,45],[-176,-32],[-49,47],[-74,26],[-36,66],[-174,13],[-138,29],[-2,38],[-56,100],[-111,4],[-52,-55],[-66,-2],[-159,93],[-92,165],[-7,127],[-34,66],[32,27],[-16,77],[-80,79],[11,27],[-186,155],[-5,216],[21,134],[-53,40],[-52,-60],[-129,-53],[-6,-34],[-187,-139],[84,-157],[23,-98],[-15,-67],[87,-21],[52,-74],[-34,-94],[22,-27],[-31,-73],[-72,-48],[-152,44],[-26,-45],[3,-107],[45,-214],[-26,-54],[-235,-266],[83,-152],[54,-241],[-65,-162],[-41,-52],[-161,-13],[-120,-66],[-190,-38],[-112,-32],[-201,78],[-79,-52],[-81,-8],[17,-62],[120,-66],[-4,-30],[-98,-23],[-43,-72],[-4,-55],[-91,-3],[-35,-32],[-98,29],[-132,86],[-49,-16],[-7,-64],[-296,44],[-282,-46],[-298,77],[-537,118],[-180,5],[-122,60],[50,82],[-61,16],[-100,-20],[-103,38],[-108,8],[-32,35],[-105,-25],[-96,4],[-98,-49],[-206,37],[-55,47],[-161,-63],[-25,63],[-83,26],[-139,-37],[-36,38],[-39,102],[-387,34],[-80,-12],[-144,30],[-39,-15],[-294,-48],[-200,13],[-11,-12],[66,-459],[105,-132],[303,-360],[3,-120],[-116,-246],[-4,-38],[-379,-372],[15,-88],[101,-102],[-47,-76],[79,-139],[-4,-47],[-122,-8],[-154,93],[-93,39],[-88,14],[-146,-28],[-92,27],[-141,-27],[-72,39],[-65,85],[-96,48],[-69,-14],[-51,38],[-73,-13],[-85,-48],[-101,12],[-88,53],[-101,37]]],"transform":{"scale":[0.00004671929714297232,0.00006043860554605545],"translate":[88.00816912400006,20.590748150000024]},"objects":{"bgd_admin1":{"type":"GeometryCollection","geometries":[{"arcs":[[0,1,2,3]],"type":"Polygon","properties":{"id":"BD10","name":"Barishal","pcode":"BD10"}},{"arcs":[[[-1,4,5,6]],[[7]],[[8]],[[9]],[[10]],[[11]],[[12]],[[13]],[[14]],[[15]],[[16]],[[17]]],"type":"MultiPolygon","properties":{"id":"BD20","name":"Chattogram","pcode":"BD20"}},{"arcs":[[-4,18,19,20,21,-5]],"type":"Polygon","properties":{"id":"BD30","name":"Dhaka","pcode":"BD30"}},{"arcs":[[-3,22,23,-19]],"type":"Polygon","properties":{"id":"BD40","name":"Khulna","pcode":"BD40"}},{"arcs":[[-21,24,25,26,27]],"type":"Polygon","properties":{"id":"BD45","name":"Mymensingh","pcode":"BD45"}},{"arcs":[[-20,-24,28,29,-25]],"type":"Polygon","properties":{"id":"BD50","name":"Rajshahi","pcode":"BD50"}},{"arcs":[[[-26,-30,30]],[[31]]],"type":"MultiPolygon","properties":{"id":"BD55","name":"Rangpur","pcode":"BD55"}},{"arcs":[[-6,-22,-28,32]],"type":"Polygon","properties":{"id":"BD60","name":"Sylhet","pcode":"BD60"}}]}}}